<?xml version="1.0" encoding="UTF-8" standalone="yes"?>
<gpx
 version="1.1"
 creator="Generated by MapOut iPhone App. See https://mapout.app"
 xmlns="http://www.topografix.com/GPX/1/1"
 xmlns:xsi="http://www.w3.org/2001/XMLSchema-instance"
 xmlns:gpxx="http://www.garmin.com/xmlschemas/GpxExtensions/v3"
 xmlns:mapout="https://mapout.app/xmlschemas/MapOutExtensions"
 xsi:schemaLocation="http://www.topografix.com/GPX/1/1 https://www.topografix.com/GPX/1/1/gpx.xsd http://www.garmin.com/xmlschemas/GpxExtensions/v3 https://www8.garmin.com/xmlschemas/GpxExtensionsv3.xsd https://mapout.app/xmlschemas/MapOutExtensions https://mapout.app/xmlschemas/MapOutExtensions.xsd">
  <metadata>
    <name>22/01/2026 - 🏔️ Manchester-Peak District (Day Walk)</name>
    <author><name>iPhone</name></author>
    <time>2026-01-16T19:41:44Z</time>
    <bounds minlat="53.52508384038604" minlon="-2.0143782185771415" maxlat="53.54679717868591" maxlon="-1.9670608430287992"/>
  </metadata>
  <wpt lat="53.5355577821861" lon="-2.004641376382104">
    <ele>169</ele>
    <name>The Old Cobblers + Farm Shop</name>
    <sym>Restaurant</sym>
    <extensions>
      <mapout:extension>
        <mapout:color>FF6A00</mapout:color>
      </mapout:extension>
    </extensions>
  </wpt>
  <wpt lat="53.54679717868591" lon="-2.0073514354378217">
    <ele>165</ele>
    <name>Muse</name>
    <sym>Restaurant</sym>
    <extensions>
      <mapout:extension>
        <mapout:color>FF00D5</mapout:color>
      </mapout:extension>
    </extensions>
  </wpt>
  <wpt lat="53.53845363599279" lon="-2.0141152411183274">
    <ele>174</ele>
    <name>Platform 13</name>
    <sym>Restaurant</sym>
    <extensions>
      <mapout:extension>
        <mapout:color>FF6A00</mapout:color>
      </mapout:extension>
    </extensions>
  </wpt>
  <wpt lat="53.53782973491473" lon="-2.0104347350272525">
    <ele>160</ele>
    <name>Blackbird and Wilde</name>
    <sym>Restaurant</sym>
    <extensions>
      <mapout:extension>
        <mapout:color>FF6A00</mapout:color>
      </mapout:extension>
    </extensions>
  </wpt>
  <wpt lat="53.53872766562277" lon="-2.0142383614019885">
    <ele>183</ele>
    <name>Greenfield</name>
    <sym>Railway</sym>
    <extensions>
      <mapout:extension>
        <mapout:color>05ADE4</mapout:color>
      </mapout:extension>
    </extensions>
  </wpt>
  <trk>
    <name>🏔️ Manchester-Peak District (Day Walk)</name>
    <trkseg>
      <trkpt lat="53.53902907195965" lon="-2.013685647257057">
        <ele>182</ele>
      </trkpt>
      <trkpt lat="53.53901964524128" lon="-2.013666793820323">
        <ele>181</ele>
      </trkpt>
      <trkpt lat="53.53901964524128" lon="-2.013666793820323">
        <ele>181</ele>
      </trkpt>
      <trkpt lat="53.53897005531184" lon="-2.0137478542818905">
        <ele>182</ele>
      </trkpt>
      <trkpt lat="53.53897005531184" lon="-2.0137478542818905">
        <ele>182</ele>
      </trkpt>
      <trkpt lat="53.53894526034713" lon="-2.0137917222963861">
        <ele>182</ele>
      </trkpt>
      <trkpt lat="53.5389395384322" lon="-2.0137898149914082">
        <ele>182</ele>
      </trkpt>
      <trkpt lat="53.53890329963761" lon="-2.0137278275796211">
        <ele>180</ele>
      </trkpt>
      <trkpt lat="53.53886706084303" lon="-2.0136648865153446">
        <ele>178</ele>
      </trkpt>
      <trkpt lat="53.53886706084303" lon="-2.0136648865153446">
        <ele>178</ele>
      </trkpt>
      <trkpt lat="53.53842265878314" lon="-2.0143209994277993">
        <ele>176</ele>
      </trkpt>
      <trkpt lat="53.53837211520122" lon="-2.0143724966622072">
        <ele>175</ele>
      </trkpt>
      <trkpt lat="53.53834636658402" lon="-2.0143782185771415">
        <ele>174</ele>
      </trkpt>
      <trkpt lat="53.53834636658402" lon="-2.0143782185771415">
        <ele>174</ele>
      </trkpt>
      <trkpt lat="53.53830345222201" lon="-2.0143343505626459">
        <ele>173</ele>
      </trkpt>
      <trkpt lat="53.53830345222201" lon="-2.0143343505626459">
        <ele>173</ele>
      </trkpt>
      <trkpt lat="53.53830154491703" lon="-2.014279992370771">
        <ele>172</ele>
      </trkpt>
      <trkpt lat="53.53838355903109" lon="-2.0140253671561994">
        <ele>171</ele>
      </trkpt>
      <trkpt lat="53.53850658020217" lon="-2.0134026320808607">
        <ele>168</ele>
      </trkpt>
      <trkpt lat="53.53854186534427" lon="-2.0131546824337119">
        <ele>166</ele>
      </trkpt>
      <trkpt lat="53.53851707037956" lon="-2.0130164028228021">
        <ele>165</ele>
      </trkpt>
      <trkpt lat="53.53851707037956" lon="-2.0130164028228021">
        <ele>165</ele>
      </trkpt>
      <trkpt lat="53.53850085828724" lon="-2.0129515544535481">
        <ele>164</ele>
      </trkpt>
      <trkpt lat="53.53848464619493" lon="-2.0128857524318047">
        <ele>164</ele>
      </trkpt>
      <trkpt lat="53.53848464619493" lon="-2.0128857524318047">
        <ele>164</ele>
      </trkpt>
      <trkpt lat="53.53839262699594" lon="-2.0125907797772853">
        <ele>161</ele>
      </trkpt>
      <trkpt lat="53.53839309555598" lon="-2.0125901201602043">
        <ele>161</ele>
      </trkpt>
      <trkpt lat="53.53849132176235" lon="-2.0124518405492946">
        <ele>162</ele>
      </trkpt>
      <trkpt lat="53.53849160580514" lon="-2.0124514406843788">
        <ele>162</ele>
      </trkpt>
      <trkpt lat="53.53842647339309" lon="-2.0123145145908738">
        <ele>161</ele>
      </trkpt>
      <trkpt lat="53.53842647339309" lon="-2.0123145145908738">
        <ele>161</ele>
      </trkpt>
      <trkpt lat="53.53839500286096" lon="-2.0123374022506106">
        <ele>161</ele>
      </trkpt>
      <trkpt lat="53.53836353232882" lon="-2.0123192828533192">
        <ele>160</ele>
      </trkpt>
      <trkpt lat="53.53835018119398" lon="-2.0122830440587358">
        <ele>160</ele>
      </trkpt>
      <trkpt lat="53.53835018119398" lon="-2.0122830440587358">
        <ele>160</ele>
      </trkpt>
      <trkpt lat="53.5383129887469" lon="-2.0121666984550739">
        <ele>160</ele>
      </trkpt>
      <trkpt lat="53.53827674995232" lon="-2.012050352851412">
        <ele>160</ele>
      </trkpt>
      <trkpt lat="53.53827674995232" lon="-2.012050352851412">
        <ele>160</ele>
      </trkpt>
      <trkpt lat="53.53827674995232" lon="-2.0119921800495808">
        <ele>160</ele>
      </trkpt>
      <trkpt lat="53.53828819378219" lon="-2.0119588022124648">
        <ele>160</ele>
      </trkpt>
      <trkpt lat="53.53828819378219" lon="-2.0119588022124648">
        <ele>160</ele>
      </trkpt>
      <trkpt lat="53.53822048445546" lon="-2.0118167079915987">
        <ele>160</ele>
      </trkpt>
      <trkpt lat="53.53822048445546" lon="-2.0118167079915987">
        <ele>160</ele>
      </trkpt>
      <trkpt lat="53.53818996757582" lon="-2.0117985885943073">
        <ele>160</ele>
      </trkpt>
      <trkpt lat="53.53811748998665" lon="-2.0116917795155356">
        <ele>160</ele>
      </trkpt>
      <trkpt lat="53.5378609574671" lon="-2.0111453366393195">
        <ele>160</ele>
      </trkpt>
      <trkpt lat="53.53784951363723" lon="-2.0110499713904164">
        <ele>160</ele>
      </trkpt>
      <trkpt lat="53.53781995041007" lon="-2.0109908449360963">
        <ele>160</ele>
      </trkpt>
      <trkpt lat="53.53781976218354" lon="-2.0109904684884845">
        <ele>160</ele>
      </trkpt>
      <trkpt lat="53.53775319473584" lon="-2.0110804882700655">
        <ele>160</ele>
      </trkpt>
      <trkpt lat="53.53775319473584" lon="-2.0110804882700655">
        <ele>160</ele>
      </trkpt>
      <trkpt lat="53.5373822239176" lon="-2.0102698836543871">
        <ele>159</ele>
      </trkpt>
      <trkpt lat="53.53705321380889" lon="-2.0094535571237748">
        <ele>160</ele>
      </trkpt>
      <trkpt lat="53.53695212664505" lon="-2.0092237268739179">
        <ele>160</ele>
      </trkpt>
      <trkpt lat="53.53695212664505" lon="-2.0092237268739179">
        <ele>160</ele>
      </trkpt>
      <trkpt lat="53.53652965859241" lon="-2.0080383368300501">
        <ele>161</ele>
      </trkpt>
      <trkpt lat="53.53652965859241" lon="-2.0080383368300501">
        <ele>161</ele>
      </trkpt>
      <trkpt lat="53.53639614724395" lon="-2.0076454320045682">
        <ele>162</ele>
      </trkpt>
      <trkpt lat="53.53599847415602" lon="-2.0063560938393956">
        <ele>164</ele>
      </trkpt>
      <trkpt lat="53.53576387564372" lon="-2.0056246423803077">
        <ele>166</ele>
      </trkpt>
      <trkpt lat="53.53549113103185" lon="-2.0048941445737083">
        <ele>167</ele>
      </trkpt>
      <trkpt lat="53.53549113103185" lon="-2.0048941445737083">
        <ele>167</ele>
      </trkpt>
      <trkpt lat="53.53537955369064" lon="-2.0046700362387857">
        <ele>168</ele>
      </trkpt>
      <trkpt lat="53.53516498188061" lon="-2.0043620064848278">
        <ele>168</ele>
      </trkpt>
      <trkpt lat="53.53516498188061" lon="-2.0043620064848278">
        <ele>168</ele>
      </trkpt>
      <trkpt lat="53.53484074003433" lon="-2.0036982643524608">
        <ele>169</ele>
      </trkpt>
      <trkpt lat="53.53473488460805" lon="-2.0034693877550929">
        <ele>169</ele>
      </trkpt>
      <trkpt lat="53.53455845889758" lon="-2.0031899675758065">
        <ele>169</ele>
      </trkpt>
      <trkpt lat="53.53406255960329" lon="-2.0025624642380224">
        <ele>165</ele>
      </trkpt>
      <trkpt lat="53.53386992180049" lon="-2.002348846080479">
        <ele>165</ele>
      </trkpt>
      <trkpt lat="53.53386992180049" lon="-2.002348846080479">
        <ele>165</ele>
      </trkpt>
      <trkpt lat="53.5335132557696" lon="-2.0020036238794492">
        <ele>164</ele>
      </trkpt>
      <trkpt lat="53.53337879076864" lon="-2.001767118062169">
        <ele>164</ele>
      </trkpt>
      <trkpt lat="53.53286000381461" lon="-1.9999999999999909">
        <ele>168</ele>
      </trkpt>
      <trkpt lat="53.53286000381461" lon="-2.0000000000000089">
        <ele>168</ele>
      </trkpt>
      <trkpt lat="53.53251001335114" lon="-1.9988260537860094">
        <ele>169</ele>
      </trkpt>
      <trkpt lat="53.53251001335114" lon="-1.9988260537860094">
        <ele>169</ele>
      </trkpt>
      <trkpt lat="53.5325309937059" lon="-1.9988060270837398">
        <ele>169</ele>
      </trkpt>
      <trkpt lat="53.53254053023078" lon="-1.9987688346366674">
        <ele>169</ele>
      </trkpt>
      <trkpt lat="53.53253290101087" lon="-1.9987297348846171">
        <ele>169</ele>
      </trkpt>
      <trkpt lat="53.53253290101087" lon="-1.9987297348846171">
        <ele>169</ele>
      </trkpt>
      <trkpt lat="53.53257104711044" lon="-1.9984779706275124">
        <ele>170</ele>
      </trkpt>
      <trkpt lat="53.53262349799733" lon="-1.9982157161930283">
        <ele>171</ele>
      </trkpt>
      <trkpt lat="53.53262349799733" lon="-1.9982157161930283">
        <ele>171</ele>
      </trkpt>
      <trkpt lat="53.53263971008965" lon="-1.9978561892046629">
        <ele>172</ele>
      </trkpt>
      <trkpt lat="53.53262826625978" lon="-1.9977446118634461">
        <ele>172</ele>
      </trkpt>
      <trkpt lat="53.53262826625978" lon="-1.9977446118634461">
        <ele>172</ele>
      </trkpt>
      <trkpt lat="53.53253480831585" lon="-1.9976358954796962">
        <ele>171</ele>
      </trkpt>
      <trkpt lat="53.53253480831585" lon="-1.9976358954796962">
        <ele>171</ele>
      </trkpt>
      <trkpt lat="53.5324527942018" lon="-1.9975548350181285">
        <ele>171</ele>
      </trkpt>
      <trkpt lat="53.5324527942018" lon="-1.9975548350181285">
        <ele>171</ele>
      </trkpt>
      <trkpt lat="53.53240225061987" lon="-1.9974995231737647">
        <ele>172</ele>
      </trkpt>
      <trkpt lat="53.53240225061987" lon="-1.9974995231737647">
        <ele>172</ele>
      </trkpt>
      <trkpt lat="53.53241846271219" lon="-1.9974203700171749">
        <ele>172</ele>
      </trkpt>
      <trkpt lat="53.53242227732215" lon="-1.9973192828533373">
        <ele>172</ele>
      </trkpt>
      <trkpt lat="53.53242227732215" lon="-1.9973192828533373">
        <ele>172</ele>
      </trkpt>
      <trkpt lat="53.53241178714477" lon="-1.9972305931718572">
        <ele>172</ele>
      </trkpt>
      <trkpt lat="53.53238985313752" lon="-1.9971209231356184">
        <ele>173</ele>
      </trkpt>
      <trkpt lat="53.53236791913027" lon="-1.9970112530993798">
        <ele>173</ele>
      </trkpt>
      <trkpt lat="53.53233740225062" lon="-1.9969168415029654">
        <ele>173</ele>
      </trkpt>
      <trkpt lat="53.53230688537097" lon="-1.9968224299065511">
        <ele>173</ele>
      </trkpt>
      <trkpt lat="53.5320683509249" lon="-1.9963051509220637">
        <ele>173</ele>
      </trkpt>
      <trkpt lat="53.53206835103767" lon="-1.9963051512494743">
        <ele>173</ele>
      </trkpt>
      <trkpt lat="53.53184627121877" lon="-1.995574098798407">
        <ele>173</ele>
      </trkpt>
      <trkpt lat="53.53111768071714" lon="-1.9935971771886416">
        <ele>177</ele>
      </trkpt>
      <trkpt lat="53.53042723631508" lon="-1.9918863246233163">
        <ele>177</ele>
      </trkpt>
      <trkpt lat="53.53035761968339" lon="-1.9912139996185481">
        <ele>177</ele>
      </trkpt>
      <trkpt lat="53.53032614915125" lon="-1.9906723250047773">
        <ele>177</ele>
      </trkpt>
      <trkpt lat="53.53032614915125" lon="-1.9906723250047773">
        <ele>177</ele>
      </trkpt>
      <trkpt lat="53.52968815563609" lon="-1.9907896242609284">
        <ele>182</ele>
      </trkpt>
      <trkpt lat="53.52962712187679" lon="-1.9907686439061696">
        <ele>184</ele>
      </trkpt>
      <trkpt lat="53.52823192828534" lon="-1.9890511157734212">
        <ele>207</ele>
      </trkpt>
      <trkpt lat="53.528086973107" lon="-1.9888880411977967">
        <ele>211</ele>
      </trkpt>
      <trkpt lat="53.52797062750334" lon="-1.9888823192828624">
        <ele>214</ele>
      </trkpt>
      <trkpt lat="53.52797062750334" lon="-1.9888823192828624">
        <ele>214</ele>
      </trkpt>
      <trkpt lat="53.52795727636849" lon="-1.9887449933244417">
        <ele>213</ele>
      </trkpt>
      <trkpt lat="53.52795727636849" lon="-1.9887449933244417">
        <ele>213</ele>
      </trkpt>
      <trkpt lat="53.52788384512684" lon="-1.9884207514781704">
        <ele>214</ele>
      </trkpt>
      <trkpt lat="53.52788384512684" lon="-1.9884207514781704">
        <ele>214</ele>
      </trkpt>
      <trkpt lat="53.52761300781995" lon="-1.9874966622162975">
        <ele>216</ele>
      </trkpt>
      <trkpt lat="53.52748140377646" lon="-1.9866622162883936">
        <ele>215</ele>
      </trkpt>
      <trkpt lat="53.52742990654206" lon="-1.9862349799733068">
        <ele>216</ele>
      </trkpt>
      <trkpt lat="53.52742227732215" lon="-1.9824079725348174">
        <ele>217</ele>
      </trkpt>
      <trkpt lat="53.52743372115201" lon="-1.9814228495136463">
        <ele>217</ele>
      </trkpt>
      <trkpt lat="53.52743372115201" lon="-1.9814228495136463">
        <ele>217</ele>
      </trkpt>
      <trkpt lat="53.52731737554835" lon="-1.9813999618539095">
        <ele>218</ele>
      </trkpt>
      <trkpt lat="53.52719530802975" lon="-1.9813456036620347">
        <ele>220</ele>
      </trkpt>
      <trkpt lat="53.52710757200077" lon="-1.981272172420379">
        <ele>221</ele>
      </trkpt>
      <trkpt lat="53.52703986267404" lon="-1.9811596414266732">
        <ele>221</ele>
      </trkpt>
      <trkpt lat="53.52700171657448" lon="-1.9810280373831866">
        <ele>221</ele>
      </trkpt>
      <trkpt lat="53.52700171657448" lon="-1.9810280373831866">
        <ele>221</ele>
      </trkpt>
      <trkpt lat="53.52671562082777" lon="-1.9800000000000091">
        <ele>221</ele>
      </trkpt>
      <trkpt lat="53.52671562082777" lon="-1.9799999999999989">
        <ele>221</ele>
      </trkpt>
      <trkpt lat="53.52663265306123" lon="-1.9797501430478721">
        <ele>221</ele>
      </trkpt>
      <trkpt lat="53.52656399008202" lon="-1.9796242609193198">
        <ele>220</ele>
      </trkpt>
      <trkpt lat="53.52651058554263" lon="-1.9795603662025547">
        <ele>221</ele>
      </trkpt>
      <trkpt lat="53.52637325958421" lon="-1.979423040244134">
        <ele>221</ele>
      </trkpt>
      <trkpt lat="53.52627407972535" lon="-1.9793744039671932">
        <ele>222</ele>
      </trkpt>
      <trkpt lat="53.5262092313561" lon="-1.9793124165554061">
        <ele>222</ele>
      </trkpt>
      <trkpt lat="53.52616059507915" lon="-1.9792094220865906">
        <ele>222</ele>
      </trkpt>
      <trkpt lat="53.52613770741942" lon="-1.9790625596032794">
        <ele>222</ele>
      </trkpt>
      <trkpt lat="53.52609002479497" lon="-1.9782052260156389">
        <ele>222</ele>
      </trkpt>
      <trkpt lat="53.52605855426282" lon="-1.9780612244897948">
        <ele>223</ele>
      </trkpt>
      <trkpt lat="53.5259736791913" lon="-1.9778914743467468">
        <ele>224</ele>
      </trkpt>
      <trkpt lat="53.5259479305741" lon="-1.9777884798779313">
        <ele>224</ele>
      </trkpt>
      <trkpt lat="53.5258086973107" lon="-1.9765029563227148">
        <ele>226</ele>
      </trkpt>
      <trkpt lat="53.52549685294679" lon="-1.9748121304596593">
        <ele>228</ele>
      </trkpt>
      <trkpt lat="53.5252956322716" lon="-1.9737802784665257">
        <ele>230</ele>
      </trkpt>
      <trkpt lat="53.52508392141904" lon="-1.9726339881747079">
        <ele>234</ele>
      </trkpt>
      <trkpt lat="53.52508392141904" lon="-1.9726339881747079">
        <ele>234</ele>
      </trkpt>
      <trkpt lat="53.52508392141904" lon="-1.9723612435628446">
        <ele>235</ele>
      </trkpt>
      <trkpt lat="53.52508392141904" lon="-1.9723612435628446">
        <ele>235</ele>
      </trkpt>
      <trkpt lat="53.52508384038604" lon="-1.9723527350977845">
        <ele>235</ele>
      </trkpt>
      <trkpt lat="53.52508392141904" lon="-1.9723526606904433">
        <ele>235</ele>
      </trkpt>
      <trkpt lat="53.52523555216479" lon="-1.9722134274270444">
        <ele>237</ele>
      </trkpt>
      <trkpt lat="53.52523555216479" lon="-1.9722134274270444">
        <ele>237</ele>
      </trkpt>
      <trkpt lat="53.52531661262636" lon="-1.9721771886324613">
        <ele>237</ele>
      </trkpt>
      <trkpt lat="53.52531661262636" lon="-1.9721771886324613">
        <ele>237</ele>
      </trkpt>
      <trkpt lat="53.52537287812321" lon="-1.9721657448025929">
        <ele>237</ele>
      </trkpt>
      <trkpt lat="53.52538909021553" lon="-1.9721466717528122">
        <ele>237</ele>
      </trkpt>
      <trkpt lat="53.52538909021553" lon="-1.9721037573908056">
        <ele>237</ele>
      </trkpt>
      <trkpt lat="53.52537573908068" lon="-1.972056074766354">
        <ele>238</ele>
      </trkpt>
      <trkpt lat="53.52537001716575" lon="-1.9719969483120339">
        <ele>239</ele>
      </trkpt>
      <trkpt lat="53.52541388518024" lon="-1.9719187488079333">
        <ele>239</ele>
      </trkpt>
      <trkpt lat="53.5254176997902" lon="-1.9718958611481965">
        <ele>240</ele>
      </trkpt>
      <trkpt lat="53.52541579248522" lon="-1.9718729734884597">
        <ele>240</ele>
      </trkpt>
      <trkpt lat="53.5253909975205" lon="-1.9718167079916067">
        <ele>240</ele>
      </trkpt>
      <trkpt lat="53.52539195117299" lon="-1.9717757009345782">
        <ele>241</ele>
      </trkpt>
      <trkpt lat="53.5254434484074" lon="-1.9716679382033175">
        <ele>242</ele>
      </trkpt>
      <trkpt lat="53.52546728971963" lon="-1.9716584016784273">
        <ele>242</ele>
      </trkpt>
      <trkpt lat="53.52554262826626" lon="-1.9716946404730105">
        <ele>241</ele>
      </trkpt>
      <trkpt lat="53.52569139805455" lon="-1.9717909593744027">
        <ele>240</ele>
      </trkpt>
      <trkpt lat="53.52606046156781" lon="-1.971969292389852">
        <ele>242</ele>
      </trkpt>
      <trkpt lat="53.52628838451268" lon="-1.9721380888804108">
        <ele>243</ele>
      </trkpt>
      <trkpt lat="53.52650486362769" lon="-1.9722105664695773">
        <ele>246</ele>
      </trkpt>
      <trkpt lat="53.52650486362769" lon="-1.9722105664695773">
        <ele>246</ele>
      </trkpt>
      <trkpt lat="53.5266002288766" lon="-1.9723078390234587">
        <ele>246</ele>
      </trkpt>
      <trkpt lat="53.52670322334541" lon="-1.9724823574289518">
        <ele>245</ele>
      </trkpt>
      <trkpt lat="53.52673469387755" lon="-1.972573908067899">
        <ele>244</ele>
      </trkpt>
      <trkpt lat="53.52675758153729" lon="-1.9726654587068462">
        <ele>243</ele>
      </trkpt>
      <trkpt lat="53.52678428380698" lon="-1.9728113675376682">
        <ele>242</ele>
      </trkpt>
      <trkpt lat="53.52680526416174" lon="-1.9730431050925032">
        <ele>239</ele>
      </trkpt>
      <trkpt lat="53.52684722487126" lon="-1.9732147625405292">
        <ele>238</ele>
      </trkpt>
      <trkpt lat="53.52696643143238" lon="-1.9734341026130067">
        <ele>236</ele>
      </trkpt>
      <trkpt lat="53.52708563799352" lon="-1.9735943162311642">
        <ele>236</ele>
      </trkpt>
      <trkpt lat="53.52730593171848" lon="-1.9737650200267012">
        <ele>237</ele>
      </trkpt>
      <trkpt lat="53.52761205416746" lon="-1.9739233263398805">
        <ele>239</ele>
      </trkpt>
      <trkpt lat="53.52767785618921" lon="-1.9739938966240691">
        <ele>240</ele>
      </trkpt>
      <trkpt lat="53.52778847987793" lon="-1.9741541102422266">
        <ele>239</ele>
      </trkpt>
      <trkpt lat="53.527956322716" lon="-1.9744325767690243">
        <ele>237</ele>
      </trkpt>
      <trkpt lat="53.52810890711425" lon="-1.9746233072668309">
        <ele>236</ele>
      </trkpt>
      <trkpt lat="53.52831775700935" lon="-1.9747968720198348">
        <ele>235</ele>
      </trkpt>
      <trkpt lat="53.52848559984741" lon="-1.9748941445737163">
        <ele>234</ele>
      </trkpt>
      <trkpt lat="53.52858859431623" lon="-1.9749246614533653">
        <ele>233</ele>
      </trkpt>
      <trkpt lat="53.5288174709136" lon="-1.9749046347510955">
        <ele>233</ele>
      </trkpt>
      <trkpt lat="53.52894621399962" lon="-1.9748655349990452">
        <ele>233</ele>
      </trkpt>
      <trkpt lat="53.52914457371734" lon="-1.9746995994659535">
        <ele>234</ele>
      </trkpt>
      <trkpt lat="53.52931623116537" lon="-1.97442685485409">
        <ele>234</ele>
      </trkpt>
      <trkpt lat="53.52948884226588" lon="-1.9740844936105273">
        <ele>235</ele>
      </trkpt>
      <trkpt lat="53.52966336067137" lon="-1.973648674423039">
        <ele>238</ele>
      </trkpt>
      <trkpt lat="53.52981594506961" lon="-1.9733606713713512">
        <ele>239</ele>
      </trkpt>
      <trkpt lat="53.52999523173756" lon="-1.9730593171848168">
        <ele>240</ele>
      </trkpt>
      <trkpt lat="53.53022506198742" lon="-1.9726263589547957">
        <ele>242</ele>
      </trkpt>
      <trkpt lat="53.53064943734503" lon="-1.9719073049780649">
        <ele>244</ele>
      </trkpt>
      <trkpt lat="53.53074003433149" lon="-1.9717776082395564">
        <ele>244</ele>
      </trkpt>
      <trkpt lat="53.53098989128362" lon="-1.9715401487697872">
        <ele>244</ele>
      </trkpt>
      <trkpt lat="53.53118348273889" lon="-1.9713961472439432">
        <ele>244</ele>
      </trkpt>
      <trkpt lat="53.53143143238604" lon="-1.9711739462139986">
        <ele>244</ele>
      </trkpt>
      <trkpt lat="53.53262540530231" lon="-1.9703347320236495">
        <ele>242</ele>
      </trkpt>
      <trkpt lat="53.53298207133321" lon="-1.9700238413122246">
        <ele>241</ele>
      </trkpt>
      <trkpt lat="53.53364485981309" lon="-1.9693934770169739">
        <ele>240</ele>
      </trkpt>
      <trkpt lat="53.53393572382224" lon="-1.9690034331489594">
        <ele>241</ele>
      </trkpt>
      <trkpt lat="53.53450696166317" lon="-1.9681747091359898">
        <ele>242</ele>
      </trkpt>
      <trkpt lat="53.53479496471486" lon="-1.9672754148388316">
        <ele>247</ele>
      </trkpt>
      <trkpt lat="53.53526893000191" lon="-1.9672458516116715">
        <ele>244</ele>
      </trkpt>
      <trkpt lat="53.53526893000191" lon="-1.9672458516116715">
        <ele>244</ele>
      </trkpt>
      <trkpt lat="53.53534045393859" lon="-1.9671533473202354">
        <ele>245</ele>
      </trkpt>
      <trkpt lat="53.53541197787526" lon="-1.9670608430287992">
        <ele>246</ele>
      </trkpt>
      <trkpt lat="53.53541197787526" lon="-1.9670608430287992">
        <ele>246</ele>
      </trkpt>
      <trkpt lat="53.53576673660118" lon="-1.967287812321189">
        <ele>243</ele>
      </trkpt>
      <trkpt lat="53.53599275224109" lon="-1.9673936677474717">
        <ele>241</ele>
      </trkpt>
      <trkpt lat="53.53646194926569" lon="-1.9673536143429322">
        <ele>242</ele>
      </trkpt>
      <trkpt lat="53.53682815182147" lon="-1.9673726873927129">
        <ele>243</ele>
      </trkpt>
      <trkpt lat="53.53682815182147" lon="-1.9673726873927129">
        <ele>243</ele>
      </trkpt>
      <trkpt lat="53.53704844554645" lon="-1.9674356284569892">
        <ele>242</ele>
      </trkpt>
      <trkpt lat="53.53720961281709" lon="-1.9674976158687763">
        <ele>242</ele>
      </trkpt>
      <trkpt lat="53.53751954987602" lon="-1.9676997901964512">
        <ele>240</ele>
      </trkpt>
      <trkpt lat="53.5375996566851" lon="-1.9677856189204643">
        <ele>240</ele>
      </trkpt>
      <trkpt lat="53.5375996566851" lon="-1.9677856189204643">
        <ele>240</ele>
      </trkpt>
      <trkpt lat="53.53764733930956" lon="-1.9678495136372294">
        <ele>239</ele>
      </trkpt>
      <trkpt lat="53.53764733930956" lon="-1.9678495136372294">
        <ele>239</ele>
      </trkpt>
      <trkpt lat="53.53777226778562" lon="-1.9680192637802774">
        <ele>238</ele>
      </trkpt>
      <trkpt lat="53.53777226778562" lon="-1.9680192637802774">
        <ele>238</ele>
      </trkpt>
      <trkpt lat="53.53782281136754" lon="-1.9681708945260337">
        <ele>237</ele>
      </trkpt>
      <trkpt lat="53.53784665267977" lon="-1.9706456227350742">
        <ele>237</ele>
      </trkpt>
      <trkpt lat="53.53784665267977" lon="-1.9706456227350742">
        <ele>237</ele>
      </trkpt>
      <trkpt lat="53.53785142094221" lon="-1.9711138661071894">
        <ele>243</ele>
      </trkpt>
      <trkpt lat="53.53785142094221" lon="-1.9711138661071894">
        <ele>243</ele>
      </trkpt>
      <trkpt lat="53.53784665267977" lon="-1.9712092313560927">
        <ele>245</ele>
      </trkpt>
      <trkpt lat="53.53784665267977" lon="-1.9712092313560927">
        <ele>245</ele>
      </trkpt>
      <trkpt lat="53.53766355140187" lon="-1.9712273507533844">
        <ele>244</ele>
      </trkpt>
      <trkpt lat="53.53741274079726" lon="-1.9712302117108513">
        <ele>243</ele>
      </trkpt>
      <trkpt lat="53.53741274079726" lon="-1.9712302117108513">
        <ele>243</ele>
      </trkpt>
      <trkpt lat="53.53727255388137" lon="-1.9712426091932089">
        <ele>243</ele>
      </trkpt>
      <trkpt lat="53.5371218767881" lon="-1.9713580011443819">
        <ele>244</ele>
      </trkpt>
      <trkpt lat="53.53697215334732" lon="-1.9715296585924078">
        <ele>247</ele>
      </trkpt>
      <trkpt lat="53.53679477398436" lon="-1.9717556742323086">
        <ele>251</ele>
      </trkpt>
      <trkpt lat="53.53669177951554" lon="-1.9718662979210364">
        <ele>253</ele>
      </trkpt>
      <trkpt lat="53.53648388327294" lon="-1.9721209231356083">
        <ele>254</ele>
      </trkpt>
      <trkpt lat="53.53638565706657" lon="-1.9722696929238974">
        <ele>255</ele>
      </trkpt>
      <trkpt lat="53.53638565706657" lon="-1.9722696929238974">
        <ele>255</ele>
      </trkpt>
      <trkpt lat="53.53630268930002" lon="-1.9723583826053774">
        <ele>255</ele>
      </trkpt>
      <trkpt lat="53.53595937440397" lon="-1.9727942017928655">
        <ele>257</ele>
      </trkpt>
      <trkpt lat="53.53584684341026" lon="-1.9729620446309353">
        <ele>258</ele>
      </trkpt>
      <trkpt lat="53.53578771695594" lon="-1.9731394239938955">
        <ele>260</ele>
      </trkpt>
      <trkpt lat="53.53563799351517" lon="-1.9735046728971952">
        <ele>262</ele>
      </trkpt>
      <trkpt lat="53.5355388136563" lon="-1.9738117489986637">
        <ele>264</ele>
      </trkpt>
      <trkpt lat="53.53542532901011" lon="-1.9741216860575994">
        <ele>264</ele>
      </trkpt>
      <trkpt lat="53.53529277131413" lon="-1.9745412931527739">
        <ele>265</ele>
      </trkpt>
      <trkpt lat="53.53526511539195" lon="-1.9748817470913587">
        <ele>268</ele>
      </trkpt>
      <trkpt lat="53.53526511539195" lon="-1.9748817470913587">
        <ele>268</ele>
      </trkpt>
      <trkpt lat="53.53535094411597" lon="-1.9748827007438479">
        <ele>270</ele>
      </trkpt>
      <trkpt lat="53.53550543581919" lon="-1.9748674423040233">
        <ele>274</ele>
      </trkpt>
      <trkpt lat="53.53550543581919" lon="-1.9748674423040233">
        <ele>274</ele>
      </trkpt>
      <trkpt lat="53.53560080106809" lon="-1.9747968720198348">
        <ele>276</ele>
      </trkpt>
      <trkpt lat="53.53567613961472" lon="-1.9746967385084864">
        <ele>277</ele>
      </trkpt>
      <trkpt lat="53.53572096128171" lon="-1.9745765782948683">
        <ele>277</ele>
      </trkpt>
      <trkpt lat="53.53578771695594" lon="-1.9745184054930371">
        <ele>278</ele>
      </trkpt>
      <trkpt lat="53.53588308220485" lon="-1.9744850276559212">
        <ele>280</ele>
      </trkpt>
      <trkpt lat="53.53596604997139" lon="-1.9744974251382785">
        <ele>281</ele>
      </trkpt>
      <trkpt lat="53.53603280564563" lon="-1.9745679954224669">
        <ele>283</ele>
      </trkpt>
      <trkpt lat="53.53612817089453" lon="-1.9746223536143419">
        <ele>284</ele>
      </trkpt>
      <trkpt lat="53.53612817089453" lon="-1.9746223536143419">
        <ele>284</ele>
      </trkpt>
      <trkpt lat="53.53621972153348" lon="-1.9746433339691005">
        <ele>286</ele>
      </trkpt>
      <trkpt lat="53.5363131794774" lon="-1.9746423803166115">
        <ele>287</ele>
      </trkpt>
      <trkpt lat="53.53631631522171" lon="-1.9746429610100034">
        <ele>287</ele>
      </trkpt>
      <trkpt lat="53.5363163152133" lon="-1.9746429610893548">
        <ele>287</ele>
      </trkpt>
      <trkpt lat="53.53630936486744" lon="-1.974686248331107">
        <ele>288</ele>
      </trkpt>
      <trkpt lat="53.53632080869731" lon="-1.9747606332252516">
        <ele>289</ele>
      </trkpt>
      <trkpt lat="53.53633320617967" lon="-1.9748350181193961">
        <ele>290</ele>
      </trkpt>
      <trkpt lat="53.53637516688919" lon="-1.9748979591836724">
        <ele>291</ele>
      </trkpt>
      <trkpt lat="53.53648960518787" lon="-1.9749160785809639">
        <ele>293</ele>
      </trkpt>
      <trkpt lat="53.53657352660691" lon="-1.9748989128361614">
        <ele>294</ele>
      </trkpt>
      <trkpt lat="53.53657352660691" lon="-1.9748989128361614">
        <ele>294</ele>
      </trkpt>
      <trkpt lat="53.53661644096891" lon="-1.9748893763112709">
        <ele>294</ele>
      </trkpt>
      <trkpt lat="53.53667747472821" lon="-1.9748416936868194">
        <ele>295</ele>
      </trkpt>
      <trkpt lat="53.53672611100515" lon="-1.9747577722677845">
        <ele>294</ele>
      </trkpt>
      <trkpt lat="53.53677474728209" lon="-1.9746728971962606">
        <ele>294</ele>
      </trkpt>
      <trkpt lat="53.53685580774366" lon="-1.9746213999618527">
        <ele>295</ele>
      </trkpt>
      <trkpt lat="53.53690921228304" lon="-1.9746748045012386">
        <ele>296</ele>
      </trkpt>
      <trkpt lat="53.53695212664505" lon="-1.9747768453175651">
        <ele>298</ele>
      </trkpt>
      <trkpt lat="53.53699504100706" lon="-1.9748788861338917">
        <ele>301</ele>
      </trkpt>
      <trkpt lat="53.53699504100706" lon="-1.9748788861338917">
        <ele>301</ele>
      </trkpt>
      <trkpt lat="53.5368108494737" lon="-1.9749375154061228">
        <ele>298</ele>
      </trkpt>
      <trkpt lat="53.53681084938499" lon="-1.9749375154343534">
        <ele>298</ele>
      </trkpt>
      <trkpt lat="53.53676044249475" lon="-1.9751058554262815">
        <ele>300</ele>
      </trkpt>
      <trkpt lat="53.53668415029563" lon="-1.9752479496471473">
        <ele>301</ele>
      </trkpt>
      <trkpt lat="53.53664033406476" lon="-1.9753082437768079">
        <ele>301</ele>
      </trkpt>
      <trkpt lat="53.53664028228114" lon="-1.9753089834064455">
        <ele>301</ele>
      </trkpt>
      <trkpt lat="53.53663360671371" lon="-1.9754043486553488">
        <ele>303</ele>
      </trkpt>
      <trkpt lat="53.53660404348656" lon="-1.9754663360671361">
        <ele>303</ele>
      </trkpt>
      <trkpt lat="53.5365744802594" lon="-1.9755273698264342">
        <ele>303</ele>
      </trkpt>
      <trkpt lat="53.53654110242228" lon="-1.9756160595079142">
        <ele>304</ele>
      </trkpt>
      <trkpt lat="53.53650772458516" lon="-1.9757037955369052">
        <ele>305</ele>
      </trkpt>
      <trkpt lat="53.53642857142857" lon="-1.9757209612817077">
        <ele>303</ele>
      </trkpt>
      <trkpt lat="53.53636467671181" lon="-1.9757877169559401">
        <ele>303</ele>
      </trkpt>
      <trkpt lat="53.53630173564753" lon="-1.9758535189776834">
        <ele>302</ele>
      </trkpt>
      <trkpt lat="53.53622162883845" lon="-1.9759526988365428">
        <ele>302</ele>
      </trkpt>
      <trkpt lat="53.53616440968911" lon="-1.9760051497234397">
        <ele>302</ele>
      </trkpt>
      <trkpt lat="53.5360785809651" lon="-1.9760518786954022">
        <ele>301</ele>
      </trkpt>
      <trkpt lat="53.53604806408545" lon="-1.9761014686248319">
        <ele>301</ele>
      </trkpt>
      <trkpt lat="53.53604997139043" lon="-1.9762111386610708">
        <ele>303</ele>
      </trkpt>
      <trkpt lat="53.53601087163837" lon="-1.9764657638756427">
        <ele>307</ele>
      </trkpt>
      <trkpt lat="53.53598035475873" lon="-1.9765315658973859">
        <ele>308</ele>
      </trkpt>
      <trkpt lat="53.53594983787908" lon="-1.9765964142666401">
        <ele>308</ele>
      </trkpt>
      <trkpt lat="53.53588308220485" lon="-1.9768796490558829">
        <ele>310</ele>
      </trkpt>
      <trkpt lat="53.53586973107" lon="-1.9769855044821656">
        <ele>311</ele>
      </trkpt>
      <trkpt lat="53.53585733358764" lon="-1.9770913599084483">
        <ele>312</ele>
      </trkpt>
      <trkpt lat="53.53585733358764" lon="-1.9770913599084483">
        <ele>312</ele>
      </trkpt>
      <trkpt lat="53.53618634369636" lon="-1.9776740415792473">
        <ele>332</ele>
      </trkpt>
      <trkpt lat="53.53621972153348" lon="-1.9777703604806398">
        <ele>334</ele>
      </trkpt>
      <trkpt lat="53.53625309937059" lon="-1.9778657257295431">
        <ele>337</ele>
      </trkpt>
      <trkpt lat="53.53633702078962" lon="-1.977982071333205">
        <ele>341</ele>
      </trkpt>
      <trkpt lat="53.53642094220866" lon="-1.9780984169368672">
        <ele>345</ele>
      </trkpt>
      <trkpt lat="53.53654491703224" lon="-1.9784369635704737">
        <ele>353</ele>
      </trkpt>
      <trkpt lat="53.53694831203509" lon="-1.9791970246042332">
        <ele>380</ele>
      </trkpt>
      <trkpt lat="53.53698931909212" lon="-1.9792456608811737">
        <ele>382</ele>
      </trkpt>
      <trkpt lat="53.53706751859622" lon="-1.9793009727255377">
        <ele>386</ele>
      </trkpt>
      <trkpt lat="53.53715906923517" lon="-1.9794182719816886">
        <ele>390</ele>
      </trkpt>
      <trkpt lat="53.53724775891665" lon="-1.9795069616631689">
        <ele>394</ele>
      </trkpt>
      <trkpt lat="53.53729734884608" lon="-1.9795727636849121">
        <ele>396</ele>
      </trkpt>
      <trkpt lat="53.537347892428" lon="-1.9796376120541663">
        <ele>399</ele>
      </trkpt>
      <trkpt lat="53.53741178714476" lon="-1.9797587259202736">
        <ele>402</ele>
      </trkpt>
      <trkpt lat="53.53749284760633" lon="-1.9797968720198349">
        <ele>405</ele>
      </trkpt>
      <trkpt lat="53.53757486172039" lon="-1.979834064466907">
        <ele>407</ele>
      </trkpt>
      <trkpt lat="53.53765306122449" lon="-1.9799036810986066">
        <ele>408</ele>
      </trkpt>
      <trkpt lat="53.53773602899103" lon="-1.979945641808124">
        <ele>409</ele>
      </trkpt>
      <trkpt lat="53.53779420179287" lon="-1.9799999999999989">
        <ele>409</ele>
      </trkpt>
      <trkpt lat="53.53779420179287" lon="-1.9800000000000091">
        <ele>409</ele>
      </trkpt>
      <trkpt lat="53.53789719626168" lon="-1.9801001335113575">
        <ele>409</ele>
      </trkpt>
      <trkpt lat="53.53796681289338" lon="-1.9800486362769498">
        <ele>410</ele>
      </trkpt>
      <trkpt lat="53.53798207133321" lon="-1.9800000000000091">
        <ele>411</ele>
      </trkpt>
      <trkpt lat="53.53798207133321" lon="-1.9799999999999989">
        <ele>411</ele>
      </trkpt>
      <trkpt lat="53.53800495899294" lon="-1.9799284760633213">
        <ele>412</ele>
      </trkpt>
      <trkpt lat="53.53802784665268" lon="-1.9798569521266438">
        <ele>413</ele>
      </trkpt>
      <trkpt lat="53.53802784665268" lon="-1.9798569521266438">
        <ele>413</ele>
      </trkpt>
      <trkpt lat="53.53819473583826" lon="-1.9797072286858657">
        <ele>417</ele>
      </trkpt>
      <trkpt lat="53.53825767690254" lon="-1.9796118634369624">
        <ele>419</ele>
      </trkpt>
      <trkpt lat="53.53836830059127" lon="-1.9794831203509429">
        <ele>422</ele>
      </trkpt>
      <trkpt lat="53.53850276559222" lon="-1.9794011062368861">
        <ele>423</ele>
      </trkpt>
      <trkpt lat="53.53863913789815" lon="-1.9792590120160203">
        <ele>426</ele>
      </trkpt>
      <trkpt lat="53.53874308601946" lon="-1.9791121495327091">
        <ele>428</ele>
      </trkpt>
      <trkpt lat="53.53881174899867" lon="-1.9789729162693104">
        <ele>428</ele>
      </trkpt>
      <trkpt lat="53.53890806790006" lon="-1.9789071142475672">
        <ele>428</ele>
      </trkpt>
      <trkpt lat="53.5389081717165" lon="-1.9789070432608566">
        <ele>428</ele>
      </trkpt>
      <trkpt lat="53.53921419034904" lon="-1.9791474346748035">
        <ele>430</ele>
      </trkpt>
      <trkpt lat="53.53968529467862" lon="-1.9799952317375538">
        <ele>416</ele>
      </trkpt>
      <trkpt lat="53.53969292389854" lon="-1.9799999999999989">
        <ele>416</ele>
      </trkpt>
      <trkpt lat="53.53969292389854" lon="-1.9800000000000091">
        <ele>416</ele>
      </trkpt>
      <trkpt lat="53.54" lon="-1.9802069425901292">
        <ele>413</ele>
      </trkpt>
      <trkpt lat="53.54000000000001" lon="-1.9802069425901292">
        <ele>413</ele>
      </trkpt>
      <trkpt lat="53.54030898340646" lon="-1.9804157924852275">
        <ele>415</ele>
      </trkpt>
      <trkpt lat="53.54091455273699" lon="-1.9810213618157635">
        <ele>418</ele>
      </trkpt>
      <trkpt lat="53.54119301926379" lon="-1.9819263780278558">
        <ele>407</ele>
      </trkpt>
      <trkpt lat="53.54151726111007" lon="-1.9824089261873064">
        <ele>407</ele>
      </trkpt>
      <trkpt lat="53.54164791150106" lon="-1.9829620446309455">
        <ele>404</ele>
      </trkpt>
      <trkpt lat="53.54185199313371" lon="-1.9836543963379836">
        <ele>400</ele>
      </trkpt>
      <trkpt lat="53.54189109288576" lon="-1.983898531375176">
        <ele>398</ele>
      </trkpt>
      <trkpt lat="53.54191874880794" lon="-1.9841617394621491">
        <ele>395</ele>
      </trkpt>
      <trkpt lat="53.54200457753196" lon="-1.9844316231165455">
        <ele>398</ele>
      </trkpt>
      <trkpt lat="53.54204463093649" lon="-1.9846357047491985">
        <ele>399</ele>
      </trkpt>
      <trkpt lat="53.54226492466147" lon="-1.9849494564180903">
        <ele>404</ele>
      </trkpt>
      <trkpt lat="53.54243944306696" lon="-1.9853747854281991">
        <ele>407</ele>
      </trkpt>
      <trkpt lat="53.54253385466338" lon="-1.9856713713522882">
        <ele>409</ele>
      </trkpt>
      <trkpt lat="53.54253194735839" lon="-1.9858926187297439">
        <ele>407</ele>
      </trkpt>
      <trkpt lat="53.54244897959185" lon="-1.9860556933053686">
        <ele>403</ele>
      </trkpt>
      <trkpt lat="53.54240701888233" lon="-1.9861691779515636">
        <ele>400</ele>
      </trkpt>
      <trkpt lat="53.54240701888233" lon="-1.9861691779515636">
        <ele>400</ele>
      </trkpt>
      <trkpt lat="53.54266545870686" lon="-1.9860699980927041">
        <ele>405</ele>
      </trkpt>
      <trkpt lat="53.54266545870686" lon="-1.9860699980927041">
        <ele>405</ele>
      </trkpt>
      <trkpt lat="53.54268548540913" lon="-1.9864199885561793">
        <ele>399</ele>
      </trkpt>
      <trkpt lat="53.54261968338739" lon="-1.9867537669273407">
        <ele>392</ele>
      </trkpt>
      <trkpt lat="53.54254243753577" lon="-1.9868224299065511">
        <ele>390</ele>
      </trkpt>
      <trkpt lat="53.54257390806791" lon="-1.9872496662216379">
        <ele>382</ele>
      </trkpt>
      <trkpt lat="53.54258630555027" lon="-1.9876902536715713">
        <ele>373</ele>
      </trkpt>
      <trkpt lat="53.54253957657831" lon="-1.9881584970436863">
        <ele>365</ele>
      </trkpt>
      <trkpt lat="53.54228209040627" lon="-1.9890272744611954">
        <ele>342</ele>
      </trkpt>
      <trkpt lat="53.54210852565326" lon="-1.9893047873355041">
        <ele>333</ele>
      </trkpt>
      <trkpt lat="53.54205226015641" lon="-1.9897520503528605">
        <ele>326</ele>
      </trkpt>
      <trkpt lat="53.54211710852567" lon="-1.9901993133702169">
        <ele>319</ele>
      </trkpt>
      <trkpt lat="53.54217718863247" lon="-1.9904243753576287">
        <ele>316</ele>
      </trkpt>
      <trkpt lat="53.54218481785239" lon="-1.9904720579820805">
        <ele>315</ele>
      </trkpt>
      <trkpt lat="53.54218481785239" lon="-1.9904720579820805">
        <ele>315</ele>
      </trkpt>
      <trkpt lat="53.54216955941256" lon="-1.9904854091169268">
        <ele>315</ele>
      </trkpt>
      <trkpt lat="53.54215144001527" lon="-1.9904730116345695">
        <ele>315</ele>
      </trkpt>
      <trkpt lat="53.54208468434103" lon="-1.9905321380888894">
        <ele>314</ele>
      </trkpt>
      <trkpt lat="53.5418529467862" lon="-1.9907772267785711">
        <ele>309</ele>
      </trkpt>
      <trkpt lat="53.5416793820332" lon="-1.9909965668510485">
        <ele>306</ele>
      </trkpt>
      <trkpt lat="53.54154682433722" lon="-1.9913732595842166">
        <ele>301</ele>
      </trkpt>
      <trkpt lat="53.54150200267024" lon="-1.9915411024222864">
        <ele>299</ele>
      </trkpt>
      <trkpt lat="53.54148674423041" lon="-1.991643143238613">
        <ele>297</ele>
      </trkpt>
      <trkpt lat="53.54148579057792" lon="-1.991731832920093">
        <ele>296</ele>
      </trkpt>
      <trkpt lat="53.54163932862866" lon="-1.9926921609765493">
        <ele>287</ele>
      </trkpt>
      <trkpt lat="53.54174232309747" lon="-1.9930488270074476">
        <ele>284</ele>
      </trkpt>
      <trkpt lat="53.54178905206944" lon="-1.9931813847034232">
        <ele>283</ele>
      </trkpt>
      <trkpt lat="53.54178905206944" lon="-1.9931813847034232">
        <ele>283</ele>
      </trkpt>
      <trkpt lat="53.54181575433913" lon="-1.9932586305550348">
        <ele>283</ele>
      </trkpt>
      <trkpt lat="53.54181575433913" lon="-1.9932586305550348">
        <ele>283</ele>
      </trkpt>
      <trkpt lat="53.54184627121878" lon="-1.9933625786763394">
        <ele>282</ele>
      </trkpt>
      <trkpt lat="53.54186629792105" lon="-1.9934655731451549">
        <ele>281</ele>
      </trkpt>
      <trkpt lat="53.54195689490751" lon="-1.9936391378981591">
        <ele>280</ele>
      </trkpt>
      <trkpt lat="53.54205416746139" lon="-1.9937917222964043">
        <ele>280</ele>
      </trkpt>
      <trkpt lat="53.54205416746139" lon="-1.9937917222964043">
        <ele>280</ele>
      </trkpt>
      <trkpt lat="53.54227350753386" lon="-1.9940768643906253">
        <ele>278</ele>
      </trkpt>
      <trkpt lat="53.54231737554836" lon="-1.9940892618729826">
        <ele>278</ele>
      </trkpt>
      <trkpt lat="53.5426015639901" lon="-1.9944936105283326">
        <ele>276</ele>
      </trkpt>
      <trkpt lat="53.54258821285525" lon="-1.9945679954224771">
        <ele>275</ele>
      </trkpt>
      <trkpt lat="53.54260347129507" lon="-1.9946175853519068">
        <ele>275</ele>
      </trkpt>
      <trkpt lat="53.54309555597941" lon="-1.9960356666030989">
        <ele>264</ele>
      </trkpt>
      <trkpt lat="53.54326244516499" lon="-1.9963684913217714">
        <ele>261</ele>
      </trkpt>
      <trkpt lat="53.54356379935152" lon="-1.9971676521075812">
        <ele>251</ele>
      </trkpt>
      <trkpt lat="53.54358477970629" lon="-1.9974594697692252">
        <ele>248</ele>
      </trkpt>
      <trkpt lat="53.54377646385658" lon="-1.9986219721533565">
        <ele>234</ele>
      </trkpt>
      <trkpt lat="53.54382986839597" lon="-1.9988880411977967">
        <ele>230</ele>
      </trkpt>
      <trkpt lat="53.54383845126837" lon="-1.9990921228304497">
        <ele>228</ele>
      </trkpt>
      <trkpt lat="53.54382319282855" lon="-1.9992485218386511">
        <ele>226</ele>
      </trkpt>
      <trkpt lat="53.54382319282855" lon="-1.9992485218386511">
        <ele>226</ele>
      </trkpt>
      <trkpt lat="53.54375357619684" lon="-2.0000000000000089">
        <ele>217</ele>
      </trkpt>
      <trkpt lat="53.54375357619684" lon="-1.9999999999999909">
        <ele>217</ele>
      </trkpt>
      <trkpt lat="53.54370017165746" lon="-2.0006160595079061">
        <ele>211</ele>
      </trkpt>
      <trkpt lat="53.54370017165746" lon="-2.0006160595079061">
        <ele>211</ele>
      </trkpt>
      <trkpt lat="53.54370875452986" lon="-2.0007247758916562">
        <ele>209</ele>
      </trkpt>
      <trkpt lat="53.5436706084303" lon="-2.0008792675948794">
        <ele>208</ele>
      </trkpt>
      <trkpt lat="53.54365916460043" lon="-2.0010070570284095">
        <ele>206</ele>
      </trkpt>
      <trkpt lat="53.54365630364296" lon="-2.0014600419607005">
        <ele>201</ele>
      </trkpt>
      <trkpt lat="53.54359908449362" lon="-2.0018291054739561">
        <ele>197</ele>
      </trkpt>
      <trkpt lat="53.54359908449362" lon="-2.0018291054739561">
        <ele>197</ele>
      </trkpt>
      <trkpt lat="53.54362960137327" lon="-2.0019292389853045">
        <ele>195</ele>
      </trkpt>
      <trkpt lat="53.54370017165746" lon="-2.0020064848369161">
        <ele>194</ele>
      </trkpt>
      <trkpt lat="53.54377169559414" lon="-2.0020837306885282">
        <ele>193</ele>
      </trkpt>
      <trkpt lat="53.54385370970819" lon="-2.0021638374976067">
        <ele>192</ele>
      </trkpt>
      <trkpt lat="53.54393667747474" lon="-2.0022429906541963">
        <ele>191</ele>
      </trkpt>
      <trkpt lat="53.54404539385849" lon="-2.0023059317184728">
        <ele>190</ele>
      </trkpt>
      <trkpt lat="53.54412836162503" lon="-2.00231832920083">
        <ele>189</ele>
      </trkpt>
      <trkpt lat="53.54421132939158" lon="-2.0023307266831876">
        <ele>189</ele>
      </trkpt>
      <trkpt lat="53.54425805836355" lon="-2.0023650581727925">
        <ele>188</ele>
      </trkpt>
      <trkpt lat="53.54425805836355" lon="-2.0023650581727925">
        <ele>188</ele>
      </trkpt>
      <trkpt lat="53.54424184627123" lon="-2.002398436009909">
        <ele>188</ele>
      </trkpt>
      <trkpt lat="53.54423898531376" lon="-2.0024413503719152">
        <ele>188</ele>
      </trkpt>
      <trkpt lat="53.54423898531376" lon="-2.0024413503719152">
        <ele>188</ele>
      </trkpt>
      <trkpt lat="53.54430764829297" lon="-2.0028819378218485">
        <ele>184</ele>
      </trkpt>
      <trkpt lat="53.54430764829297" lon="-2.0028819378218485">
        <ele>184</ele>
      </trkpt>
      <trkpt lat="53.54432481403778" lon="-2.0030001907304888">
        <ele>183</ele>
      </trkpt>
      <trkpt lat="53.54434293343507" lon="-2.0031174899866397">
        <ele>182</ele>
      </trkpt>
      <trkpt lat="53.54434293343507" lon="-2.0031174899866397">
        <ele>182</ele>
      </trkpt>
      <trkpt lat="53.54442304024415" lon="-2.0035847797062658">
        <ele>178</ele>
      </trkpt>
      <trkpt lat="53.54446404730118" lon="-2.0037612054167369">
        <ele>177</ele>
      </trkpt>
      <trkpt lat="53.54457848559986" lon="-2.0041865344268457">
        <ele>174</ele>
      </trkpt>
      <trkpt lat="53.54480259393478" lon="-2.0045908830821957">
        <ele>172</ele>
      </trkpt>
      <trkpt lat="53.54488842265879" lon="-2.0048159450696077">
        <ele>171</ele>
      </trkpt>
      <trkpt lat="53.54488842265879" lon="-2.0048159450696077">
        <ele>171</ele>
      </trkpt>
      <trkpt lat="53.54489605187871" lon="-2.0049971390425236">
        <ele>170</ele>
      </trkpt>
      <trkpt lat="53.5448531375167" lon="-2.0053080297539485">
        <ele>169</ele>
      </trkpt>
      <trkpt lat="53.54474728209042" lon="-2.0058821285523463">
        <ele>167</ele>
      </trkpt>
      <trkpt lat="53.54474728209042" lon="-2.0058821285523463">
        <ele>167</ele>
      </trkpt>
      <trkpt lat="53.54470246042343" lon="-2.0060156399008111">
        <ele>166</ele>
      </trkpt>
      <trkpt lat="53.54459469769217" lon="-2.0064524127407881">
        <ele>165</ele>
      </trkpt>
      <trkpt lat="53.54459469769217" lon="-2.0064524127407881">
        <ele>165</ele>
      </trkpt>
      <trkpt lat="53.54490177379364" lon="-2.0066612626358862">
        <ele>164</ele>
      </trkpt>
      <trkpt lat="53.5453223345413" lon="-2.0069616631699319">
        <ele>164</ele>
      </trkpt>
      <trkpt lat="53.54560175472059" lon="-2.007199122639701">
        <ele>164</ele>
      </trkpt>
      <trkpt lat="53.54568281518216" lon="-2.0072506198741089">
        <ele>164</ele>
      </trkpt>
      <trkpt lat="53.54568281518216" lon="-2.0072506198741089">
        <ele>164</ele>
      </trkpt>
      <trkpt lat="53.54574480259394" lon="-2.0072992561510494">
        <ele>164</ele>
      </trkpt>
      <trkpt lat="53.54580679000573" lon="-2.0073478924279899">
        <ele>164</ele>
      </trkpt>
      <trkpt lat="53.54580679000573" lon="-2.0073478924279899">
        <ele>164</ele>
      </trkpt>
      <trkpt lat="53.54584302880032" lon="-2.0073917604424856">
        <ele>164</ele>
      </trkpt>
      <trkpt lat="53.54584302880032" lon="-2.0073917604424856">
        <ele>164</ele>
      </trkpt>
      <trkpt lat="53.54592885752433" lon="-2.0075109670036149">
        <ele>164</ele>
      </trkpt>
      <trkpt lat="53.54607648818021" lon="-2.0078976187213877">
        <ele>167</ele>
      </trkpt>
      <trkpt lat="53.54607648815156" lon="-2.0078976187120654">
        <ele>167</ele>
      </trkpt>
      <trkpt lat="53.54631222582492" lon="-2.0076606904443928">
        <ele>166</ele>
      </trkpt>
      <trkpt lat="53.54652584398247" lon="-2.007425138279602">
        <ele>165</ele>
      </trkpt>
      <trkpt lat="53.5466054204996" lon="-2.0073417724045046">
        <ele>165</ele>
      </trkpt>
    </trkseg>
  </trk>
</gpx>