<?xml version="1.0" encoding="UTF-8" standalone="yes"?>
<gpx
 version="1.1"
 creator="Generated by MapOut iPhone App. See https://mapout.app"
 xmlns="http://www.topografix.com/GPX/1/1"
 xmlns:xsi="http://www.w3.org/2001/XMLSchema-instance"
 xmlns:gpxx="http://www.garmin.com/xmlschemas/GpxExtensions/v3"
 xmlns:mapout="https://mapout.app/xmlschemas/MapOutExtensions"
 xsi:schemaLocation="http://www.topografix.com/GPX/1/1 https://www.topografix.com/GPX/1/1/gpx.xsd http://www.garmin.com/xmlschemas/GpxExtensions/v3 https://www8.garmin.com/xmlschemas/GpxExtensionsv3.xsd https://mapout.app/xmlschemas/MapOutExtensions https://mapout.app/xmlschemas/MapOutExtensions.xsd">
  <metadata>
    <name><![CDATA[Etapa 1 (X) - Uharte Arakil -> Lekunberri]]></name>
    <desc>Uharte Arakil - Irañeta - Facería 53 - Uharte Arakil - Aralar mendilerroa / Sierra de Aralar - Larraun - Lekunberri</desc>
    <time>2021-10-13T09:35:14Z</time>
    <bounds minlat="42.920001" minlon="-2.0018600000000002" maxlat="43.005178" maxlon="-1.894798"/>
  </metadata>
  <trk>
    <name><![CDATA[Etapa 1 (X) - Uharte Arakil -> Lekunberri]]></name>
    <desc>Uharte Arakil - Irañeta - Facería 53 - Uharte Arakil - Aralar mendilerroa / Sierra de Aralar - Larraun - Lekunberri</desc>
    <trkseg>
      <trkpt lat="42.920001" lon="-1.968729">
        <ele>472</ele>
      </trkpt>
      <trkpt lat="42.920027" lon="-1.9688460000000001">
        <ele>473</ele>
      </trkpt>
      <trkpt lat="42.920033" lon="-1.968909">
        <ele>473</ele>
      </trkpt>
      <trkpt lat="42.920349" lon="-1.9687840000000001">
        <ele>471</ele>
      </trkpt>
      <trkpt lat="42.920823" lon="-1.9685859999999999">
        <ele>470</ele>
      </trkpt>
      <trkpt lat="42.920888" lon="-1.96855">
        <ele>469</ele>
      </trkpt>
      <trkpt lat="42.921323" lon="-1.9683349999999999">
        <ele>468</ele>
      </trkpt>
      <trkpt lat="42.921717" lon="-1.9681820000000001">
        <ele>468</ele>
      </trkpt>
      <trkpt lat="42.921921" lon="-1.968119">
        <ele>466</ele>
      </trkpt>
      <trkpt lat="42.921981" lon="-1.9681550000000001">
        <ele>466</ele>
      </trkpt>
      <trkpt lat="42.922046" lon="-1.9681999999999999">
        <ele>466</ele>
      </trkpt>
      <trkpt lat="42.922224" lon="-1.968119">
        <ele>465</ele>
      </trkpt>
      <trkpt lat="42.922356" lon="-1.9685049999999999">
        <ele>467</ele>
      </trkpt>
      <trkpt lat="42.922356" lon="-1.9685760000000001">
        <ele>467</ele>
      </trkpt>
      <trkpt lat="42.922388" lon="-1.9686939999999999">
        <ele>468</ele>
      </trkpt>
      <trkpt lat="42.922434" lon="-1.9688380000000001">
        <ele>468</ele>
      </trkpt>
      <trkpt lat="42.922474" lon="-1.9688920000000001">
        <ele>468</ele>
      </trkpt>
      <trkpt lat="42.922513" lon="-1.9689449999999999">
        <ele>468</ele>
      </trkpt>
      <trkpt lat="42.922665" lon="-1.9690810000000001">
        <ele>466</ele>
      </trkpt>
      <trkpt lat="42.922724" lon="-1.9691160000000001">
        <ele>465</ele>
      </trkpt>
      <trkpt lat="42.922908" lon="-1.969152">
        <ele>463</ele>
      </trkpt>
      <trkpt lat="42.92302" lon="-1.969152">
        <ele>462</ele>
      </trkpt>
      <trkpt lat="42.92302" lon="-1.9690449999999999">
        <ele>462</ele>
      </trkpt>
      <trkpt lat="42.923039" lon="-1.968936">
        <ele>462</ele>
      </trkpt>
      <trkpt lat="42.923066" lon="-1.968855">
        <ele>461</ele>
      </trkpt>
      <trkpt lat="42.923092" lon="-1.9687749999999999">
        <ele>461</ele>
      </trkpt>
      <trkpt lat="42.923184" lon="-1.968515">
        <ele>461</ele>
      </trkpt>
      <trkpt lat="42.923395" lon="-1.9675">
        <ele>460</ele>
      </trkpt>
      <trkpt lat="42.923454" lon="-1.967347">
        <ele>459</ele>
      </trkpt>
      <trkpt lat="42.923783" lon="-1.966861">
        <ele>459</ele>
      </trkpt>
      <trkpt lat="42.923875" lon="-1.9667269999999999">
        <ele>459</ele>
      </trkpt>
      <trkpt lat="42.923941" lon="-1.966601">
        <ele>459</ele>
      </trkpt>
      <trkpt lat="42.924006" lon="-1.966458">
        <ele>458</ele>
      </trkpt>
      <trkpt lat="42.924065" lon="-1.966224">
        <ele>457</ele>
      </trkpt>
      <trkpt lat="42.924289" lon="-1.9651190000000001">
        <ele>458</ele>
      </trkpt>
      <trkpt lat="42.924309" lon="-1.9649840000000001">
        <ele>458</ele>
      </trkpt>
      <trkpt lat="42.924316" lon="-1.964858">
        <ele>458</ele>
      </trkpt>
      <trkpt lat="42.924302" lon="-1.9644079999999999">
        <ele>460</ele>
      </trkpt>
      <trkpt lat="42.924257" lon="-1.9637709999999999">
        <ele>461</ele>
      </trkpt>
      <trkpt lat="42.924329" lon="-1.9636450000000001">
        <ele>462</ele>
      </trkpt>
      <trkpt lat="42.924375" lon="-1.963538">
        <ele>462</ele>
      </trkpt>
      <trkpt lat="42.924407" lon="-1.9633130000000001">
        <ele>463</ele>
      </trkpt>
      <trkpt lat="42.924434" lon="-1.963052">
        <ele>463</ele>
      </trkpt>
      <trkpt lat="42.92444" lon="-1.96254">
        <ele>464</ele>
      </trkpt>
      <trkpt lat="42.924454" lon="-1.9623600000000001">
        <ele>465</ele>
      </trkpt>
      <trkpt lat="42.924493" lon="-1.9621729999999999">
        <ele>466</ele>
      </trkpt>
      <trkpt lat="42.924566" lon="-1.961957">
        <ele>467</ele>
      </trkpt>
      <trkpt lat="42.924671" lon="-1.9617579999999999">
        <ele>470</ele>
      </trkpt>
      <trkpt lat="42.924934" lon="-1.9614180000000001">
        <ele>472</ele>
      </trkpt>
      <trkpt lat="42.92521" lon="-1.961139">
        <ele>474</ele>
      </trkpt>
      <trkpt lat="42.925329" lon="-1.9609589999999999">
        <ele>476</ele>
      </trkpt>
      <trkpt lat="42.925434" lon="-1.960744">
        <ele>479</ele>
      </trkpt>
      <trkpt lat="42.925585" lon="-1.9604649999999999">
        <ele>486</ele>
      </trkpt>
      <trkpt lat="42.925631" lon="-1.9603219999999999">
        <ele>488</ele>
      </trkpt>
      <trkpt lat="42.925657" lon="-1.960196">
        <ele>490</ele>
      </trkpt>
      <trkpt lat="42.925671" lon="-1.9600519999999999">
        <ele>490</ele>
      </trkpt>
      <trkpt lat="42.92569" lon="-1.9599260000000001">
        <ele>490</ele>
      </trkpt>
      <trkpt lat="42.925802" lon="-1.9597020000000001">
        <ele>492</ele>
      </trkpt>
      <trkpt lat="42.926032" lon="-1.9594050000000001">
        <ele>495</ele>
      </trkpt>
      <trkpt lat="42.926427" lon="-1.9589209999999999">
        <ele>504</ele>
      </trkpt>
      <trkpt lat="42.926585" lon="-1.9587680000000001">
        <ele>507</ele>
      </trkpt>
      <trkpt lat="42.926822" lon="-1.9585969999999999">
        <ele>511</ele>
      </trkpt>
      <trkpt lat="42.926933" lon="-1.958515">
        <ele>513</ele>
      </trkpt>
      <trkpt lat="42.92717" lon="-1.9583090000000001">
        <ele>516</ele>
      </trkpt>
      <trkpt lat="42.927539" lon="-1.9579500000000001">
        <ele>522</ele>
      </trkpt>
      <trkpt lat="42.927755" lon="-1.957789">
        <ele>525</ele>
      </trkpt>
      <trkpt lat="42.928052" lon="-1.9576450000000001">
        <ele>529</ele>
      </trkpt>
      <trkpt lat="42.928183" lon="-1.957573">
        <ele>531</ele>
      </trkpt>
      <trkpt lat="42.928275" lon="-1.9575">
        <ele>532</ele>
      </trkpt>
      <trkpt lat="42.928427" lon="-1.95733">
        <ele>533</ele>
      </trkpt>
      <trkpt lat="42.928506" lon="-1.9572590000000001">
        <ele>533</ele>
      </trkpt>
      <trkpt lat="42.928782" lon="-1.957087">
        <ele>535</ele>
      </trkpt>
      <trkpt lat="42.92892" lon="-1.9569970000000001">
        <ele>537</ele>
      </trkpt>
      <trkpt lat="42.929045" lon="-1.9568810000000001">
        <ele>539</ele>
      </trkpt>
      <trkpt lat="42.929486" lon="-1.9564049999999999">
        <ele>549</ele>
      </trkpt>
      <trkpt lat="42.929926" lon="-1.9559820000000001">
        <ele>553</ele>
      </trkpt>
      <trkpt lat="42.930012" lon="-1.955875">
        <ele>554</ele>
      </trkpt>
      <trkpt lat="42.930354" lon="-1.955282">
        <ele>559</ele>
      </trkpt>
      <trkpt lat="42.930775" lon="-1.95468">
        <ele>561</ele>
      </trkpt>
      <trkpt lat="42.93086" lon="-1.9545189999999999">
        <ele>563</ele>
      </trkpt>
      <trkpt lat="42.931091" lon="-1.953997">
        <ele>569</ele>
      </trkpt>
      <trkpt lat="42.931169" lon="-1.9538439999999999">
        <ele>570</ele>
      </trkpt>
      <trkpt lat="42.931288" lon="-1.9536469999999999">
        <ele>573</ele>
      </trkpt>
      <trkpt lat="42.931531" lon="-1.95336">
        <ele>579</ele>
      </trkpt>
      <trkpt lat="42.931853" lon="-1.9530449999999999">
        <ele>581</ele>
      </trkpt>
      <trkpt lat="42.931972" lon="-1.9529110000000001">
        <ele>581</ele>
      </trkpt>
      <trkpt lat="42.93209" lon="-1.952758">
        <ele>581</ele>
      </trkpt>
      <trkpt lat="42.932195" lon="-1.9525250000000001">
        <ele>580</ele>
      </trkpt>
      <trkpt lat="42.932485" lon="-1.951797">
        <ele>582</ele>
      </trkpt>
      <trkpt lat="42.932748" lon="-1.951087">
        <ele>579</ele>
      </trkpt>
      <trkpt lat="42.932886" lon="-1.9508080000000001">
        <ele>579</ele>
      </trkpt>
      <trkpt lat="42.933037" lon="-1.9505840000000001">
        <ele>580</ele>
      </trkpt>
      <trkpt lat="42.933176" lon="-1.950413">
        <ele>582</ele>
      </trkpt>
      <trkpt lat="42.933452" lon="-1.950126">
        <ele>588</ele>
      </trkpt>
      <trkpt lat="42.934011" lon="-1.9494069999999999">
        <ele>604</ele>
      </trkpt>
      <trkpt lat="42.934083" lon="-1.9493529999999999">
        <ele>606</ele>
      </trkpt>
      <trkpt lat="42.934169" lon="-1.949317">
        <ele>608</ele>
      </trkpt>
      <trkpt lat="42.934261" lon="-1.949362">
        <ele>610</ele>
      </trkpt>
      <trkpt lat="42.934333" lon="-1.949452">
        <ele>611</ele>
      </trkpt>
      <trkpt lat="42.934537" lon="-1.9498470000000001">
        <ele>616</ele>
      </trkpt>
      <trkpt lat="42.934635" lon="-1.949999">
        <ele>620</ele>
      </trkpt>
      <trkpt lat="42.93478" lon="-1.9501980000000001">
        <ele>624</ele>
      </trkpt>
      <trkpt lat="42.934879" lon="-1.9503410000000001">
        <ele>626</ele>
      </trkpt>
      <trkpt lat="42.935024" lon="-1.950647">
        <ele>628</ele>
      </trkpt>
      <trkpt lat="42.935109" lon="-1.9507989999999999">
        <ele>627</ele>
      </trkpt>
      <trkpt lat="42.935214" lon="-1.9509339999999999">
        <ele>626</ele>
      </trkpt>
      <trkpt lat="42.935385" lon="-1.9511050000000001">
        <ele>623</ele>
      </trkpt>
      <trkpt lat="42.935747" lon="-1.9513929999999999">
        <ele>619</ele>
      </trkpt>
      <trkpt lat="42.935832" lon="-1.9514469999999999">
        <ele>618</ele>
      </trkpt>
      <trkpt lat="42.935905" lon="-1.9514830000000001">
        <ele>618</ele>
      </trkpt>
      <trkpt lat="42.93601" lon="-1.9515180000000001">
        <ele>618</ele>
      </trkpt>
      <trkpt lat="42.936096" lon="-1.9515359999999999">
        <ele>617</ele>
      </trkpt>
      <trkpt lat="42.936477" lon="-1.951527">
        <ele>618</ele>
      </trkpt>
      <trkpt lat="42.936589" lon="-1.9515180000000001">
        <ele>619</ele>
      </trkpt>
      <trkpt lat="42.936681" lon="-1.951473">
        <ele>619</ele>
      </trkpt>
      <trkpt lat="42.936885" lon="-1.9513469999999999">
        <ele>618</ele>
      </trkpt>
      <trkpt lat="42.937036" lon="-1.951276">
        <ele>618</ele>
      </trkpt>
      <trkpt lat="42.937181" lon="-1.9512130000000001">
        <ele>618</ele>
      </trkpt>
      <trkpt lat="42.937227" lon="-1.9511769999999999">
        <ele>618</ele>
      </trkpt>
      <trkpt lat="42.937273" lon="-1.951114">
        <ele>618</ele>
      </trkpt>
      <trkpt lat="42.937299" lon="-1.9510419999999999">
        <ele>618</ele>
      </trkpt>
      <trkpt lat="42.937319" lon="-1.950925">
        <ele>618</ele>
      </trkpt>
      <trkpt lat="42.937338" lon="-1.9507369999999999">
        <ele>618</ele>
      </trkpt>
      <trkpt lat="42.937371" lon="-1.9505570000000001">
        <ele>617</ele>
      </trkpt>
      <trkpt lat="42.937549" lon="-1.9498470000000001">
        <ele>615</ele>
      </trkpt>
      <trkpt lat="42.937615" lon="-1.949649">
        <ele>614</ele>
      </trkpt>
      <trkpt lat="42.937839" lon="-1.948984">
        <ele>616</ele>
      </trkpt>
      <trkpt lat="42.937878" lon="-1.948833">
        <ele>616</ele>
      </trkpt>
      <trkpt lat="42.937911" lon="-1.948653">
        <ele>615</ele>
      </trkpt>
      <trkpt lat="42.93795" lon="-1.9484459999999999">
        <ele>614</ele>
      </trkpt>
      <trkpt lat="42.937983" lon="-1.9483280000000001">
        <ele>614</ele>
      </trkpt>
      <trkpt lat="42.938075" lon="-1.9480679999999999">
        <ele>617</ele>
      </trkpt>
      <trkpt lat="42.938272" lon="-1.9475290000000001">
        <ele>624</ele>
      </trkpt>
      <trkpt lat="42.938325" lon="-1.9474119999999999">
        <ele>626</ele>
      </trkpt>
      <trkpt lat="42.938391" lon="-1.9472860000000001">
        <ele>627</ele>
      </trkpt>
      <trkpt lat="42.938529" lon="-1.9470719999999999">
        <ele>630</ele>
      </trkpt>
      <trkpt lat="42.938568" lon="-1.9469989999999999">
        <ele>631</ele>
      </trkpt>
      <trkpt lat="42.938595" lon="-1.946936">
        <ele>631</ele>
      </trkpt>
      <trkpt lat="42.938608" lon="-1.946847">
        <ele>630</ele>
      </trkpt>
      <trkpt lat="42.938634" lon="-1.946407">
        <ele>629</ele>
      </trkpt>
      <trkpt lat="42.938654" lon="-1.9462630000000001">
        <ele>630</ele>
      </trkpt>
      <trkpt lat="42.93868" lon="-1.946137">
        <ele>632</ele>
      </trkpt>
      <trkpt lat="42.938746" lon="-1.945921">
        <ele>635</ele>
      </trkpt>
      <trkpt lat="42.938812" lon="-1.9457599999999999">
        <ele>638</ele>
      </trkpt>
      <trkpt lat="42.938917" lon="-1.9455180000000001">
        <ele>641</ele>
      </trkpt>
      <trkpt lat="42.938996" lon="-1.9453549999999999">
        <ele>644</ele>
      </trkpt>
      <trkpt lat="42.939075" lon="-1.9452309999999999">
        <ele>648</ele>
      </trkpt>
      <trkpt lat="42.939167" lon="-1.9451039999999999">
        <ele>652</ele>
      </trkpt>
      <trkpt lat="42.939292" lon="-1.9449780000000001">
        <ele>659</ele>
      </trkpt>
      <trkpt lat="42.939331" lon="-1.944898">
        <ele>661</ele>
      </trkpt>
      <trkpt lat="42.939371" lon="-1.9447989999999999">
        <ele>663</ele>
      </trkpt>
      <trkpt lat="42.939404" lon="-1.944655">
        <ele>665</ele>
      </trkpt>
      <trkpt lat="42.939437" lon="-1.9444570000000001">
        <ele>667</ele>
      </trkpt>
      <trkpt lat="42.939476" lon="-1.9441600000000001">
        <ele>666</ele>
      </trkpt>
      <trkpt lat="42.939542" lon="-1.943873">
        <ele>665</ele>
      </trkpt>
      <trkpt lat="42.939594" lon="-1.943667">
        <ele>666</ele>
      </trkpt>
      <trkpt lat="42.939654" lon="-1.943505">
        <ele>668</ele>
      </trkpt>
      <trkpt lat="42.939726" lon="-1.9433339999999999">
        <ele>671</ele>
      </trkpt>
      <trkpt lat="42.939818" lon="-1.9431369999999999">
        <ele>672</ele>
      </trkpt>
      <trkpt lat="42.939858" lon="-1.94302">
        <ele>673</ele>
      </trkpt>
      <trkpt lat="42.939982" lon="-1.942634">
        <ele>679</ele>
      </trkpt>
      <trkpt lat="42.940107" lon="-1.942221">
        <ele>687</ele>
      </trkpt>
      <trkpt lat="42.940173" lon="-1.941978">
        <ele>691</ele>
      </trkpt>
      <trkpt lat="42.940212" lon="-1.9417990000000001">
        <ele>695</ele>
      </trkpt>
      <trkpt lat="42.940232" lon="-1.9416629999999999">
        <ele>697</ele>
      </trkpt>
      <trkpt lat="42.940245" lon="-1.941538">
        <ele>697</ele>
      </trkpt>
      <trkpt lat="42.940245" lon="-1.941403">
        <ele>697</ele>
      </trkpt>
      <trkpt lat="42.940212" lon="-1.941017">
        <ele>690</ele>
      </trkpt>
      <trkpt lat="42.940219" lon="-1.9408639999999999">
        <ele>689</ele>
      </trkpt>
      <trkpt lat="42.940252" lon="-1.94072">
        <ele>690</ele>
      </trkpt>
      <trkpt lat="42.940298" lon="-1.9406209999999999">
        <ele>691</ele>
      </trkpt>
      <trkpt lat="42.940364" lon="-1.940496">
        <ele>692</ele>
      </trkpt>
      <trkpt lat="42.940521" lon="-1.9402710000000001">
        <ele>694</ele>
      </trkpt>
      <trkpt lat="42.940758" lon="-1.939867">
        <ele>691</ele>
      </trkpt>
      <trkpt lat="42.940778" lon="-1.9398409999999999">
        <ele>692</ele>
      </trkpt>
      <trkpt lat="42.940798" lon="-1.9398120000000001">
        <ele>692</ele>
      </trkpt>
      <trkpt lat="42.940857" lon="-1.9397679999999999">
        <ele>695</ele>
      </trkpt>
      <trkpt lat="42.941074" lon="-1.939705">
        <ele>706</ele>
      </trkpt>
      <trkpt lat="42.94114" lon="-1.9396610000000001">
        <ele>709</ele>
      </trkpt>
      <trkpt lat="42.941205" lon="-1.9395789999999999">
        <ele>710</ele>
      </trkpt>
      <trkpt lat="42.941311" lon="-1.9394180000000001">
        <ele>708</ele>
      </trkpt>
      <trkpt lat="42.941435" lon="-1.939265">
        <ele>706</ele>
      </trkpt>
      <trkpt lat="42.941672" lon="-1.939049">
        <ele>708</ele>
      </trkpt>
      <trkpt lat="42.942021" lon="-1.9386540000000001">
        <ele>710</ele>
      </trkpt>
      <trkpt lat="42.942238" lon="-1.938483">
        <ele>715</ele>
      </trkpt>
      <trkpt lat="42.942435" lon="-1.938286">
        <ele>719</ele>
      </trkpt>
      <trkpt lat="42.942494" lon="-1.93825">
        <ele>722</ele>
      </trkpt>
      <trkpt lat="42.94254" lon="-1.9382330000000001">
        <ele>724</ele>
      </trkpt>
      <trkpt lat="42.942587" lon="-1.9382410000000001">
        <ele>726</ele>
      </trkpt>
      <trkpt lat="42.942632" lon="-1.938277">
        <ele>730</ele>
      </trkpt>
      <trkpt lat="42.942672" lon="-1.9383570000000001">
        <ele>734</ele>
      </trkpt>
      <trkpt lat="42.942711" lon="-1.938493">
        <ele>740</ele>
      </trkpt>
      <trkpt lat="42.942731" lon="-1.938663">
        <ele>745</ele>
      </trkpt>
      <trkpt lat="42.942744" lon="-1.9389860000000001">
        <ele>753</ele>
      </trkpt>
      <trkpt lat="42.942744" lon="-1.9392750000000001">
        <ele>760</ele>
      </trkpt>
      <trkpt lat="42.942731" lon="-1.9394990000000001">
        <ele>764</ele>
      </trkpt>
      <trkpt lat="42.942705" lon="-1.939705">
        <ele>768</ele>
      </trkpt>
      <trkpt lat="42.942494" lon="-1.941133">
        <ele>788</ele>
      </trkpt>
      <trkpt lat="42.942494" lon="-1.9413130000000001">
        <ele>787</ele>
      </trkpt>
      <trkpt lat="42.942514" lon="-1.9414199999999999">
        <ele>787</ele>
      </trkpt>
      <trkpt lat="42.942567" lon="-1.9415199999999999">
        <ele>785</ele>
      </trkpt>
      <trkpt lat="42.942659" lon="-1.941592">
        <ele>783</ele>
      </trkpt>
      <trkpt lat="42.942744" lon="-1.9416279999999999">
        <ele>782</ele>
      </trkpt>
      <trkpt lat="42.942869" lon="-1.941646">
        <ele>780</ele>
      </trkpt>
      <trkpt lat="42.942981" lon="-1.9416279999999999">
        <ele>779</ele>
      </trkpt>
      <trkpt lat="42.943073" lon="-1.9416100000000001">
        <ele>778</ele>
      </trkpt>
      <trkpt lat="42.943139" lon="-1.941573">
        <ele>779</ele>
      </trkpt>
      <trkpt lat="42.943211" lon="-1.9414929999999999">
        <ele>779</ele>
      </trkpt>
      <trkpt lat="42.943534" lon="-1.9410700000000001">
        <ele>781</ele>
      </trkpt>
      <trkpt lat="42.943744" lon="-1.940801">
        <ele>782</ele>
      </trkpt>
      <trkpt lat="42.943849" lon="-1.940631">
        <ele>783</ele>
      </trkpt>
      <trkpt lat="42.943908" lon="-1.9404870000000001">
        <ele>781</ele>
      </trkpt>
      <trkpt lat="42.94402" lon="-1.940164">
        <ele>779</ele>
      </trkpt>
      <trkpt lat="42.944085" lon="-1.9400470000000001">
        <ele>779</ele>
      </trkpt>
      <trkpt lat="42.944289" lon="-1.939786">
        <ele>782</ele>
      </trkpt>
      <trkpt lat="42.944323" lon="-1.939705">
        <ele>782</ele>
      </trkpt>
      <trkpt lat="42.944349" lon="-1.9396150000000001">
        <ele>782</ele>
      </trkpt>
      <trkpt lat="42.944362" lon="-1.939481">
        <ele>781</ele>
      </trkpt>
      <trkpt lat="42.944375" lon="-1.939103">
        <ele>779</ele>
      </trkpt>
      <trkpt lat="42.944395" lon="-1.93896">
        <ele>779</ele>
      </trkpt>
      <trkpt lat="42.94446" lon="-1.938736">
        <ele>780</ele>
      </trkpt>
      <trkpt lat="42.944664" lon="-1.9382410000000001">
        <ele>782</ele>
      </trkpt>
      <trkpt lat="42.94475" lon="-1.938007">
        <ele>781</ele>
      </trkpt>
      <trkpt lat="42.944816" lon="-1.937881">
        <ele>782</ele>
      </trkpt>
      <trkpt lat="42.944921" lon="-1.9377200000000001">
        <ele>782</ele>
      </trkpt>
      <trkpt lat="42.945006" lon="-1.9376119999999999">
        <ele>784</ele>
      </trkpt>
      <trkpt lat="42.945125" lon="-1.9375039999999999">
        <ele>788</ele>
      </trkpt>
      <trkpt lat="42.945375" lon="-1.9373339999999999">
        <ele>799</ele>
      </trkpt>
      <trkpt lat="42.945427" lon="-1.937271">
        <ele>801</ele>
      </trkpt>
      <trkpt lat="42.94546" lon="-1.9371989999999999">
        <ele>803</ele>
      </trkpt>
      <trkpt lat="42.945467" lon="-1.937136">
        <ele>804</ele>
      </trkpt>
      <trkpt lat="42.945467" lon="-1.937038">
        <ele>804</ele>
      </trkpt>
      <trkpt lat="42.945421" lon="-1.936696">
        <ele>805</ele>
      </trkpt>
      <trkpt lat="42.945394" lon="-1.936436">
        <ele>806</ele>
      </trkpt>
      <trkpt lat="42.945362" lon="-1.9350339999999999">
        <ele>820</ele>
      </trkpt>
      <trkpt lat="42.945368" lon="-1.9347190000000001">
        <ele>822</ele>
      </trkpt>
      <trkpt lat="42.945414" lon="-1.9338029999999999">
        <ele>829</ele>
      </trkpt>
      <trkpt lat="42.945414" lon="-1.9333720000000001">
        <ele>832</ele>
      </trkpt>
      <trkpt lat="42.945408" lon="-1.9331830000000001">
        <ele>833</ele>
      </trkpt>
      <trkpt lat="42.945381" lon="-1.9329670000000001">
        <ele>833</ele>
      </trkpt>
      <trkpt lat="42.945355" lon="-1.9327799999999999">
        <ele>833</ele>
      </trkpt>
      <trkpt lat="42.945362" lon="-1.932671">
        <ele>833</ele>
      </trkpt>
      <trkpt lat="42.945401" lon="-1.9326000000000001">
        <ele>834</ele>
      </trkpt>
      <trkpt lat="42.945473" lon="-1.9325909999999999">
        <ele>837</ele>
      </trkpt>
      <trkpt lat="42.945533" lon="-1.9326540000000001">
        <ele>840</ele>
      </trkpt>
      <trkpt lat="42.945565" lon="-1.9327430000000001">
        <ele>841</ele>
      </trkpt>
      <trkpt lat="42.945592" lon="-1.9330039999999999">
        <ele>840</ele>
      </trkpt>
      <trkpt lat="42.945618" lon="-1.933157">
        <ele>840</ele>
      </trkpt>
      <trkpt lat="42.945776" lon="-1.9336770000000001">
        <ele>840</ele>
      </trkpt>
      <trkpt lat="42.945835" lon="-1.9338120000000001">
        <ele>841</ele>
      </trkpt>
      <trkpt lat="42.945894" lon="-1.9338660000000001">
        <ele>843</ele>
      </trkpt>
      <trkpt lat="42.945966" lon="-1.933875">
        <ele>845</ele>
      </trkpt>
      <trkpt lat="42.946039" lon="-1.9338390000000001">
        <ele>848</ele>
      </trkpt>
      <trkpt lat="42.94617" lon="-1.933713">
        <ele>853</ele>
      </trkpt>
      <trkpt lat="42.946282" lon="-1.9335599999999999">
        <ele>857</ele>
      </trkpt>
      <trkpt lat="42.946355" lon="-1.933435">
        <ele>858</ele>
      </trkpt>
      <trkpt lat="42.946414" lon="-1.9332910000000001">
        <ele>860</ele>
      </trkpt>
      <trkpt lat="42.94644" lon="-1.9331389999999999">
        <ele>861</ele>
      </trkpt>
      <trkpt lat="42.946466" lon="-1.9328959999999999">
        <ele>864</ele>
      </trkpt>
      <trkpt lat="42.946479" lon="-1.932761">
        <ele>867</ele>
      </trkpt>
      <trkpt lat="42.946512" lon="-1.932617">
        <ele>869</ele>
      </trkpt>
      <trkpt lat="42.946604" lon="-1.932348">
        <ele>873</ele>
      </trkpt>
      <trkpt lat="42.946703" lon="-1.932124">
        <ele>875</ele>
      </trkpt>
      <trkpt lat="42.946815" lon="-1.931935">
        <ele>875</ele>
      </trkpt>
      <trkpt lat="42.946927" lon="-1.931764">
        <ele>873</ele>
      </trkpt>
      <trkpt lat="42.947058" lon="-1.931602">
        <ele>873</ele>
      </trkpt>
      <trkpt lat="42.947176" lon="-1.931476">
        <ele>873</ele>
      </trkpt>
      <trkpt lat="42.947269" lon="-1.9314229999999999">
        <ele>872</ele>
      </trkpt>
      <trkpt lat="42.947367" lon="-1.9313959999999999">
        <ele>872</ele>
      </trkpt>
      <trkpt lat="42.947479" lon="-1.931386">
        <ele>871</ele>
      </trkpt>
      <trkpt lat="42.947564" lon="-1.931386">
        <ele>871</ele>
      </trkpt>
      <trkpt lat="42.947656" lon="-1.931414">
        <ele>870</ele>
      </trkpt>
      <trkpt lat="42.947742" lon="-1.931476">
        <ele>869</ele>
      </trkpt>
      <trkpt lat="42.947801" lon="-1.9315580000000001">
        <ele>868</ele>
      </trkpt>
      <trkpt lat="42.94786" lon="-1.931692">
        <ele>867</ele>
      </trkpt>
      <trkpt lat="42.947926" lon="-1.931891">
        <ele>866</ele>
      </trkpt>
      <trkpt lat="42.947985" lon="-1.932124">
        <ele>866</ele>
      </trkpt>
      <trkpt lat="42.948018" lon="-1.932348">
        <ele>866</ele>
      </trkpt>
      <trkpt lat="42.948031" lon="-1.9326000000000001">
        <ele>865</ele>
      </trkpt>
      <trkpt lat="42.948051" lon="-1.932833">
        <ele>865</ele>
      </trkpt>
      <trkpt lat="42.948077" lon="-1.933084">
        <ele>865</ele>
      </trkpt>
      <trkpt lat="42.948117" lon="-1.9332830000000001">
        <ele>865</ele>
      </trkpt>
      <trkpt lat="42.948189" lon="-1.9335329999999999">
        <ele>867</ele>
      </trkpt>
      <trkpt lat="42.948215" lon="-1.933705">
        <ele>868</ele>
      </trkpt>
      <trkpt lat="42.948242" lon="-1.9339200000000001">
        <ele>870</ele>
      </trkpt>
      <trkpt lat="42.948261" lon="-1.9342250000000001">
        <ele>870</ele>
      </trkpt>
      <trkpt lat="42.948274" lon="-1.934369">
        <ele>870</ele>
      </trkpt>
      <trkpt lat="42.94836" lon="-1.934809">
        <ele>872</ele>
      </trkpt>
      <trkpt lat="42.948393" lon="-1.935017">
        <ele>872</ele>
      </trkpt>
      <trkpt lat="42.948439" lon="-1.9355199999999999">
        <ele>873</ele>
      </trkpt>
      <trkpt lat="42.948564" lon="-1.9362999999999999">
        <ele>877</ele>
      </trkpt>
      <trkpt lat="42.948584" lon="-1.9365349999999999">
        <ele>879</ele>
      </trkpt>
      <trkpt lat="42.948603" lon="-1.936849">
        <ele>881</ele>
      </trkpt>
      <trkpt lat="42.94863" lon="-1.937019">
        <ele>882</ele>
      </trkpt>
      <trkpt lat="42.948689" lon="-1.937522">
        <ele>886</ele>
      </trkpt>
      <trkpt lat="42.948708" lon="-1.937846">
        <ele>886</ele>
      </trkpt>
      <trkpt lat="42.948695" lon="-1.940145">
        <ele>901</ele>
      </trkpt>
      <trkpt lat="42.948663" lon="-1.9406570000000001">
        <ele>904</ele>
      </trkpt>
      <trkpt lat="42.94863" lon="-1.9417800000000001">
        <ele>908</ele>
      </trkpt>
      <trkpt lat="42.94857" lon="-1.942831">
        <ele>911</ele>
      </trkpt>
      <trkpt lat="42.94857" lon="-1.9430829999999999">
        <ele>914</ele>
      </trkpt>
      <trkpt lat="42.948636" lon="-1.94391">
        <ele>924</ele>
      </trkpt>
      <trkpt lat="42.948649" lon="-1.944242">
        <ele>924</ele>
      </trkpt>
      <trkpt lat="42.948636" lon="-1.945527">
        <ele>934</ele>
      </trkpt>
      <trkpt lat="42.94861" lon="-1.946183">
        <ele>937</ele>
      </trkpt>
      <trkpt lat="42.948603" lon="-1.9464699999999999">
        <ele>939</ele>
      </trkpt>
      <trkpt lat="42.948597" lon="-1.946739">
        <ele>941</ele>
      </trkpt>
      <trkpt lat="42.948656" lon="-1.947565">
        <ele>955</ele>
      </trkpt>
      <trkpt lat="42.948708" lon="-1.9483470000000001">
        <ele>961</ele>
      </trkpt>
      <trkpt lat="42.948708" lon="-1.948464">
        <ele>961</ele>
      </trkpt>
      <trkpt lat="42.948715" lon="-1.94859">
        <ele>961</ele>
      </trkpt>
      <trkpt lat="42.948675" lon="-1.94903">
        <ele>963</ele>
      </trkpt>
      <trkpt lat="42.948649" lon="-1.949722">
        <ele>965</ele>
      </trkpt>
      <trkpt lat="42.948675" lon="-1.9502520000000001">
        <ele>970</ele>
      </trkpt>
      <trkpt lat="42.948682" lon="-1.9504220000000001">
        <ele>973</ele>
      </trkpt>
      <trkpt lat="42.948656" lon="-1.9516070000000001">
        <ele>982</ele>
      </trkpt>
      <trkpt lat="42.948649" lon="-1.9520489999999999">
        <ele>986</ele>
      </trkpt>
      <trkpt lat="42.94863" lon="-1.9522459999999999">
        <ele>988</ele>
      </trkpt>
      <trkpt lat="42.948498" lon="-1.953063">
        <ele>996</ele>
      </trkpt>
      <trkpt lat="42.94836" lon="-1.953692">
        <ele>1001</ele>
      </trkpt>
      <trkpt lat="42.948327" lon="-1.953781">
        <ele>1002</ele>
      </trkpt>
      <trkpt lat="42.948274" lon="-1.9538359999999999">
        <ele>1004</ele>
      </trkpt>
      <trkpt lat="42.948222" lon="-1.953854">
        <ele>1005</ele>
      </trkpt>
      <trkpt lat="42.948156" lon="-1.9538439999999999">
        <ele>1007</ele>
      </trkpt>
      <trkpt lat="42.948097" lon="-1.953827">
        <ele>1009</ele>
      </trkpt>
      <trkpt lat="42.948038" lon="-1.9537640000000001">
        <ele>1010</ele>
      </trkpt>
      <trkpt lat="42.947946" lon="-1.9536469999999999">
        <ele>1011</ele>
      </trkpt>
      <trkpt lat="42.947696" lon="-1.9532609999999999">
        <ele>1015</ele>
      </trkpt>
      <trkpt lat="42.947157" lon="-1.952353">
        <ele>1017</ele>
      </trkpt>
      <trkpt lat="42.946999" lon="-1.95211">
        <ele>1017</ele>
      </trkpt>
      <trkpt lat="42.946578" lon="-1.9515">
        <ele>1005</ele>
      </trkpt>
      <trkpt lat="42.946486" lon="-1.9513929999999999">
        <ele>1001</ele>
      </trkpt>
      <trkpt lat="42.946367" lon="-1.95133">
        <ele>995</ele>
      </trkpt>
      <trkpt lat="42.946295" lon="-1.9513199999999999">
        <ele>993</ele>
      </trkpt>
      <trkpt lat="42.946229" lon="-1.951357">
        <ele>992</ele>
      </trkpt>
      <trkpt lat="42.946137" lon="-1.9514469999999999">
        <ele>991</ele>
      </trkpt>
      <trkpt lat="42.946032" lon="-1.9515629999999999">
        <ele>989</ele>
      </trkpt>
      <trkpt lat="42.945947" lon="-1.95167">
        <ele>987</ele>
      </trkpt>
      <trkpt lat="42.945894" lon="-1.9517789999999999">
        <ele>987</ele>
      </trkpt>
      <trkpt lat="42.945842" lon="-1.951913">
        <ele>988</ele>
      </trkpt>
      <trkpt lat="42.945776" lon="-1.9521470000000001">
        <ele>990</ele>
      </trkpt>
      <trkpt lat="42.945743" lon="-1.9523090000000001">
        <ele>993</ele>
      </trkpt>
      <trkpt lat="42.945703" lon="-1.9525520000000001">
        <ele>996</ele>
      </trkpt>
      <trkpt lat="42.945618" lon="-1.9532069999999999">
        <ele>1005</ele>
      </trkpt>
      <trkpt lat="42.945559" lon="-1.9542040000000001">
        <ele>1017</ele>
      </trkpt>
      <trkpt lat="42.945486" lon="-1.9561809999999999">
        <ele>1030</ele>
      </trkpt>
      <trkpt lat="42.94548" lon="-1.9564680000000001">
        <ele>1034</ele>
      </trkpt>
      <trkpt lat="42.94546" lon="-1.9567099999999999">
        <ele>1037</ele>
      </trkpt>
      <trkpt lat="42.945414" lon="-1.957114">
        <ele>1043</ele>
      </trkpt>
      <trkpt lat="42.945322" lon="-1.957716">
        <ele>1051</ele>
      </trkpt>
      <trkpt lat="42.945217" lon="-1.9582729999999999">
        <ele>1058</ele>
      </trkpt>
      <trkpt lat="42.945105" lon="-1.9588939999999999">
        <ele>1066</ele>
      </trkpt>
      <trkpt lat="42.944908" lon="-1.959827">
        <ele>1079</ele>
      </trkpt>
      <trkpt lat="42.944757" lon="-1.9605919999999999">
        <ele>1090</ele>
      </trkpt>
      <trkpt lat="42.944697" lon="-1.961031">
        <ele>1097</ele>
      </trkpt>
      <trkpt lat="42.944651" lon="-1.9612210000000001">
        <ele>1099</ele>
      </trkpt>
      <trkpt lat="42.944598" lon="-1.9613370000000001">
        <ele>1101</ele>
      </trkpt>
      <trkpt lat="42.944467" lon="-1.961517">
        <ele>1103</ele>
      </trkpt>
      <trkpt lat="42.944277" lon="-1.961821">
        <ele>1103</ele>
      </trkpt>
      <trkpt lat="42.944171" lon="-1.9620470000000001">
        <ele>1104</ele>
      </trkpt>
      <trkpt lat="42.944066" lon="-1.962324">
        <ele>1106</ele>
      </trkpt>
      <trkpt lat="42.943829" lon="-1.962828">
        <ele>1107</ele>
      </trkpt>
      <trkpt lat="42.943579" lon="-1.9634389999999999">
        <ele>1107</ele>
      </trkpt>
      <trkpt lat="42.943474" lon="-1.963735">
        <ele>1109</ele>
      </trkpt>
      <trkpt lat="42.943428" lon="-1.9639599999999999">
        <ele>1111</ele>
      </trkpt>
      <trkpt lat="42.943408" lon="-1.9641839999999999">
        <ele>1114</ele>
      </trkpt>
      <trkpt lat="42.943402" lon="-1.9643999999999999">
        <ele>1117</ele>
      </trkpt>
      <trkpt lat="42.943408" lon="-1.964534">
        <ele>1118</ele>
      </trkpt>
      <trkpt lat="42.943448" lon="-1.9649570000000001">
        <ele>1121</ele>
      </trkpt>
      <trkpt lat="42.943481" lon="-1.965263">
        <ele>1122</ele>
      </trkpt>
      <trkpt lat="42.943513" lon="-1.9653890000000001">
        <ele>1123</ele>
      </trkpt>
      <trkpt lat="42.943553" lon="-1.965479">
        <ele>1124</ele>
      </trkpt>
      <trkpt lat="42.943586" lon="-1.9655320000000001">
        <ele>1124</ele>
      </trkpt>
      <trkpt lat="42.943632" lon="-1.965576">
        <ele>1125</ele>
      </trkpt>
      <trkpt lat="42.943691" lon="-1.965595">
        <ele>1126</ele>
      </trkpt>
      <trkpt lat="42.943744" lon="-1.9655860000000001">
        <ele>1127</ele>
      </trkpt>
      <trkpt lat="42.943783" lon="-1.9655400000000001">
        <ele>1128</ele>
      </trkpt>
      <trkpt lat="42.943816" lon="-1.965479">
        <ele>1129</ele>
      </trkpt>
      <trkpt lat="42.943829" lon="-1.9653970000000001">
        <ele>1129</ele>
      </trkpt>
      <trkpt lat="42.943823" lon="-1.9653069999999999">
        <ele>1130</ele>
      </trkpt>
      <trkpt lat="42.943803" lon="-1.965182">
        <ele>1129</ele>
      </trkpt>
      <trkpt lat="42.943803" lon="-1.9650639999999999">
        <ele>1129</ele>
      </trkpt>
      <trkpt lat="42.943908" lon="-1.9644079999999999">
        <ele>1129</ele>
      </trkpt>
      <trkpt lat="42.943941" lon="-1.9642919999999999">
        <ele>1129</ele>
      </trkpt>
      <trkpt lat="42.943994" lon="-1.964221">
        <ele>1130</ele>
      </trkpt>
      <trkpt lat="42.944059" lon="-1.9641580000000001">
        <ele>1131</ele>
      </trkpt>
      <trkpt lat="42.944152" lon="-1.9641120000000001">
        <ele>1135</ele>
      </trkpt>
      <trkpt lat="42.944224" lon="-1.9641120000000001">
        <ele>1137</ele>
      </trkpt>
      <trkpt lat="42.944309" lon="-1.9641310000000001">
        <ele>1140</ele>
      </trkpt>
      <trkpt lat="42.944375" lon="-1.964175">
        <ele>1142</ele>
      </trkpt>
      <trkpt lat="42.944434" lon="-1.9642740000000001">
        <ele>1145</ele>
      </trkpt>
      <trkpt lat="42.944553" lon="-1.964526">
        <ele>1150</ele>
      </trkpt>
      <trkpt lat="42.944737" lon="-1.964974">
        <ele>1153</ele>
      </trkpt>
      <trkpt lat="42.945066" lon="-1.9657119999999999">
        <ele>1154</ele>
      </trkpt>
      <trkpt lat="42.945158" lon="-1.9659549999999999">
        <ele>1155</ele>
      </trkpt>
      <trkpt lat="42.945362" lon="-1.966448">
        <ele>1154</ele>
      </trkpt>
      <trkpt lat="42.945519" lon="-1.9668969999999999">
        <ele>1155</ele>
      </trkpt>
      <trkpt lat="42.945664" lon="-1.967247">
        <ele>1157</ele>
      </trkpt>
      <trkpt lat="42.945868" lon="-1.967813">
        <ele>1158</ele>
      </trkpt>
      <trkpt lat="42.946065" lon="-1.968515">
        <ele>1158</ele>
      </trkpt>
      <trkpt lat="42.946144" lon="-1.968739">
        <ele>1160</ele>
      </trkpt>
      <trkpt lat="42.946249" lon="-1.9689989999999999">
        <ele>1163</ele>
      </trkpt>
      <trkpt lat="42.946302" lon="-1.969171">
        <ele>1164</ele>
      </trkpt>
      <trkpt lat="42.946348" lon="-1.969368">
        <ele>1165</ele>
      </trkpt>
      <trkpt lat="42.9464" lon="-1.9695210000000001">
        <ele>1166</ele>
      </trkpt>
      <trkpt lat="42.946453" lon="-1.9696370000000001">
        <ele>1168</ele>
      </trkpt>
      <trkpt lat="42.946519" lon="-1.969727">
        <ele>1170</ele>
      </trkpt>
      <trkpt lat="42.946585" lon="-1.9697899999999999">
        <ele>1172</ele>
      </trkpt>
      <trkpt lat="42.946657" lon="-1.9698169999999999">
        <ele>1175</ele>
      </trkpt>
      <trkpt lat="42.946742" lon="-1.9698260000000001">
        <ele>1179</ele>
      </trkpt>
      <trkpt lat="42.946835" lon="-1.969808">
        <ele>1182</ele>
      </trkpt>
      <trkpt lat="42.94692" lon="-1.9697709999999999">
        <ele>1186</ele>
      </trkpt>
      <trkpt lat="42.946999" lon="-1.9696910000000001">
        <ele>1190</ele>
      </trkpt>
      <trkpt lat="42.947452" lon="-1.9690620000000001">
        <ele>1206</ele>
      </trkpt>
      <trkpt lat="42.947689" lon="-1.968729">
        <ele>1209</ele>
      </trkpt>
      <trkpt lat="42.947926" lon="-1.9683889999999999">
        <ele>1213</ele>
      </trkpt>
      <trkpt lat="42.948268" lon="-1.96793">
        <ele>1217</ele>
      </trkpt>
      <trkpt lat="42.94834" lon="-1.9678500000000001">
        <ele>1217</ele>
      </trkpt>
      <trkpt lat="42.948459" lon="-1.9677420000000001">
        <ele>1217</ele>
      </trkpt>
      <trkpt lat="42.948636" lon="-1.967589">
        <ele>1216</ele>
      </trkpt>
      <trkpt lat="42.948768" lon="-1.967508">
        <ele>1215</ele>
      </trkpt>
      <trkpt lat="42.948879" lon="-1.967454">
        <ele>1216</ele>
      </trkpt>
      <trkpt lat="42.948912" lon="-1.9674370000000001">
        <ele>1216</ele>
      </trkpt>
      <trkpt lat="42.949294" lon="-1.9686049999999999">
        <ele>1204</ele>
      </trkpt>
      <trkpt lat="42.949373" lon="-1.9689449999999999">
        <ele>1199</ele>
      </trkpt>
      <trkpt lat="42.949432" lon="-1.969314">
        <ele>1193</ele>
      </trkpt>
      <trkpt lat="42.949497" lon="-1.9697629999999999">
        <ele>1190</ele>
      </trkpt>
      <trkpt lat="42.949537" lon="-1.969997">
        <ele>1188</ele>
      </trkpt>
      <trkpt lat="42.949609" lon="-1.9702740000000001">
        <ele>1187</ele>
      </trkpt>
      <trkpt lat="42.950109" lon="-1.971641">
        <ele>1191</ele>
      </trkpt>
      <trkpt lat="42.950714" lon="-1.973293">
        <ele>1191</ele>
      </trkpt>
      <trkpt lat="42.950799" lon="-1.973536">
        <ele>1190</ele>
      </trkpt>
      <trkpt lat="42.950812" lon="-1.973616">
        <ele>1189</ele>
      </trkpt>
      <trkpt lat="42.950812" lon="-1.973706">
        <ele>1187</ele>
      </trkpt>
      <trkpt lat="42.950806" lon="-1.9738230000000001">
        <ele>1186</ele>
      </trkpt>
      <trkpt lat="42.950786" lon="-1.973913">
        <ele>1185</ele>
      </trkpt>
      <trkpt lat="42.950523" lon="-1.974685">
        <ele>1175</ele>
      </trkpt>
      <trkpt lat="42.950491" lon="-1.9748110000000001">
        <ele>1173</ele>
      </trkpt>
      <trkpt lat="42.950464" lon="-1.974928">
        <ele>1171</ele>
      </trkpt>
      <trkpt lat="42.950451" lon="-1.975117">
        <ele>1170</ele>
      </trkpt>
      <trkpt lat="42.950458" lon="-1.9753240000000001">
        <ele>1169</ele>
      </trkpt>
      <trkpt lat="42.950464" lon="-1.975611">
        <ele>1166</ele>
      </trkpt>
      <trkpt lat="42.950497" lon="-1.9762029999999999">
        <ele>1160</ele>
      </trkpt>
      <trkpt lat="42.950543" lon="-1.9766790000000001">
        <ele>1158</ele>
      </trkpt>
      <trkpt lat="42.950576" lon="-1.9769049999999999">
        <ele>1158</ele>
      </trkpt>
      <trkpt lat="42.950609" lon="-1.9770920000000001">
        <ele>1158</ele>
      </trkpt>
      <trkpt lat="42.950662" lon="-1.9772639999999999">
        <ele>1158</ele>
      </trkpt>
      <trkpt lat="42.950819" lon="-1.977597">
        <ele>1162</ele>
      </trkpt>
      <trkpt lat="42.950957" lon="-1.9779739999999999">
        <ele>1164</ele>
      </trkpt>
      <trkpt lat="42.951089" lon="-1.97844">
        <ele>1161</ele>
      </trkpt>
      <trkpt lat="42.951148" lon="-1.97871">
        <ele>1159</ele>
      </trkpt>
      <trkpt lat="42.951207" lon="-1.9789159999999999">
        <ele>1158</ele>
      </trkpt>
      <trkpt lat="42.951272" lon="-1.97906">
        <ele>1157</ele>
      </trkpt>
      <trkpt lat="42.951411" lon="-1.9792050000000001">
        <ele>1159</ele>
      </trkpt>
      <trkpt lat="42.951608" lon="-1.9794020000000001">
        <ele>1160</ele>
      </trkpt>
      <trkpt lat="42.95174" lon="-1.979509">
        <ele>1161</ele>
      </trkpt>
      <trkpt lat="42.951838" lon="-1.9796260000000001">
        <ele>1161</ele>
      </trkpt>
      <trkpt lat="42.951884" lon="-1.9797419999999999">
        <ele>1160</ele>
      </trkpt>
      <trkpt lat="42.952003" lon="-1.9799580000000001">
        <ele>1157</ele>
      </trkpt>
      <trkpt lat="42.952088" lon="-1.98004">
        <ele>1156</ele>
      </trkpt>
      <trkpt lat="42.952207" lon="-1.980084">
        <ele>1156</ele>
      </trkpt>
      <trkpt lat="42.952404" lon="-1.9801299999999999">
        <ele>1157</ele>
      </trkpt>
      <trkpt lat="42.952739" lon="-1.980192">
        <ele>1161</ele>
      </trkpt>
      <trkpt lat="42.953238" lon="-1.9803900000000001">
        <ele>1158</ele>
      </trkpt>
      <trkpt lat="42.95335" lon="-1.980453">
        <ele>1156</ele>
      </trkpt>
      <trkpt lat="42.953449" lon="-1.980534">
        <ele>1154</ele>
      </trkpt>
      <trkpt lat="42.953541" lon="-1.9806870000000001">
        <ele>1150</ele>
      </trkpt>
      <trkpt lat="42.953594" lon="-1.9807760000000001">
        <ele>1148</ele>
      </trkpt>
      <trkpt lat="42.953672" lon="-1.9809369999999999">
        <ele>1144</ele>
      </trkpt>
      <trkpt lat="42.95389" lon="-1.98136">
        <ele>1139</ele>
      </trkpt>
      <trkpt lat="42.953922" lon="-1.9814590000000001">
        <ele>1138</ele>
      </trkpt>
      <trkpt lat="42.953942" lon="-1.98153">
        <ele>1137</ele>
      </trkpt>
      <trkpt lat="42.953962" lon="-1.9816389999999999">
        <ele>1135</ele>
      </trkpt>
      <trkpt lat="42.953975" lon="-1.9818450000000001">
        <ele>1132</ele>
      </trkpt>
      <trkpt lat="42.953969" lon="-1.981962">
        <ele>1131</ele>
      </trkpt>
      <trkpt lat="42.953922" lon="-1.982232">
        <ele>1128</ele>
      </trkpt>
      <trkpt lat="42.953909" lon="-1.9823120000000001">
        <ele>1127</ele>
      </trkpt>
      <trkpt lat="42.953903" lon="-1.982448">
        <ele>1125</ele>
      </trkpt>
      <trkpt lat="42.953916" lon="-1.982618">
        <ele>1124</ele>
      </trkpt>
      <trkpt lat="42.953949" lon="-1.9828969999999999">
        <ele>1122</ele>
      </trkpt>
      <trkpt lat="42.953962" lon="-1.9830669999999999">
        <ele>1121</ele>
      </trkpt>
      <trkpt lat="42.953962" lon="-1.983247">
        <ele>1118</ele>
      </trkpt>
      <trkpt lat="42.953929" lon="-1.9836419999999999">
        <ele>1112</ele>
      </trkpt>
      <trkpt lat="42.953883" lon="-1.983992">
        <ele>1108</ele>
      </trkpt>
      <trkpt lat="42.953837" lon="-1.984243">
        <ele>1103</ele>
      </trkpt>
      <trkpt lat="42.953686" lon="-1.984836">
        <ele>1097</ele>
      </trkpt>
      <trkpt lat="42.95366" lon="-1.984998">
        <ele>1097</ele>
      </trkpt>
      <trkpt lat="42.953653" lon="-1.985142">
        <ele>1097</ele>
      </trkpt>
      <trkpt lat="42.953653" lon="-1.985268">
        <ele>1097</ele>
      </trkpt>
      <trkpt lat="42.953672" lon="-1.9854210000000001">
        <ele>1098</ele>
      </trkpt>
      <trkpt lat="42.953699" lon="-1.985582">
        <ele>1100</ele>
      </trkpt>
      <trkpt lat="42.953903" lon="-1.9866159999999999">
        <ele>1113</ele>
      </trkpt>
      <trkpt lat="42.953969" lon="-1.9868399999999999">
        <ele>1113</ele>
      </trkpt>
      <trkpt lat="42.9541" lon="-1.9870730000000001">
        <ele>1114</ele>
      </trkpt>
      <trkpt lat="42.954705" lon="-1.9880439999999999">
        <ele>1117</ele>
      </trkpt>
      <trkpt lat="42.95479" lon="-1.98817">
        <ele>1118</ele>
      </trkpt>
      <trkpt lat="42.954863" lon="-1.9882409999999999">
        <ele>1117</ele>
      </trkpt>
      <trkpt lat="42.954954" lon="-1.9883040000000001">
        <ele>1116</ele>
      </trkpt>
      <trkpt lat="42.955125" lon="-1.9883770000000001">
        <ele>1113</ele>
      </trkpt>
      <trkpt lat="42.955237" lon="-1.9884379999999999">
        <ele>1112</ele>
      </trkpt>
      <trkpt lat="42.955329" lon="-1.9885200000000001">
        <ele>1111</ele>
      </trkpt>
      <trkpt lat="42.955408" lon="-1.9885999999999999">
        <ele>1111</ele>
      </trkpt>
      <trkpt lat="42.955547" lon="-1.9887980000000001">
        <ele>1112</ele>
      </trkpt>
      <trkpt lat="42.955671" lon="-1.9890669999999999">
        <ele>1112</ele>
      </trkpt>
      <trkpt lat="42.955737" lon="-1.9892829999999999">
        <ele>1112</ele>
      </trkpt>
      <trkpt lat="42.955803" lon="-1.9895350000000001">
        <ele>1110</ele>
      </trkpt>
      <trkpt lat="42.955829" lon="-1.9896879999999999">
        <ele>1110</ele>
      </trkpt>
      <trkpt lat="42.955836" lon="-1.9898400000000001">
        <ele>1110</ele>
      </trkpt>
      <trkpt lat="42.955763" lon="-1.990964">
        <ele>1107</ele>
      </trkpt>
      <trkpt lat="42.955685" lon="-1.991816">
        <ele>1103</ele>
      </trkpt>
      <trkpt lat="42.955665" lon="-1.992329">
        <ele>1099</ele>
      </trkpt>
      <trkpt lat="42.955658" lon="-1.9924900000000001">
        <ele>1099</ele>
      </trkpt>
      <trkpt lat="42.955671" lon="-1.992715">
        <ele>1097</ele>
      </trkpt>
      <trkpt lat="42.955809" lon="-1.993811">
        <ele>1091</ele>
      </trkpt>
      <trkpt lat="42.955816" lon="-1.993954">
        <ele>1091</ele>
      </trkpt>
      <trkpt lat="42.955823" lon="-1.994143">
        <ele>1089</ele>
      </trkpt>
      <trkpt lat="42.955823" lon="-1.994664">
        <ele>1083</ele>
      </trkpt>
      <trkpt lat="42.955803" lon="-1.9955890000000001">
        <ele>1084</ele>
      </trkpt>
      <trkpt lat="42.955803" lon="-1.9957959999999999">
        <ele>1084</ele>
      </trkpt>
      <trkpt lat="42.955816" lon="-1.99621">
        <ele>1081</ele>
      </trkpt>
      <trkpt lat="42.956007" lon="-1.998105">
        <ele>1065</ele>
      </trkpt>
      <trkpt lat="42.956027" lon="-1.9982580000000001">
        <ele>1064</ele>
      </trkpt>
      <trkpt lat="42.956053" lon="-1.9985090000000001">
        <ele>1062</ele>
      </trkpt>
      <trkpt lat="42.956269" lon="-1.999776">
        <ele>1060</ele>
      </trkpt>
      <trkpt lat="42.956342" lon="-2.0004590000000002">
        <ele>1059</ele>
      </trkpt>
      <trkpt lat="42.956375" lon="-2.0007359999999998">
        <ele>1059</ele>
      </trkpt>
      <trkpt lat="42.956388" lon="-2.0009160000000001">
        <ele>1059</ele>
      </trkpt>
      <trkpt lat="42.956408" lon="-2.0012120000000002">
        <ele>1059</ele>
      </trkpt>
      <trkpt lat="42.956421" lon="-2.0014280000000002">
        <ele>1058</ele>
      </trkpt>
      <trkpt lat="42.956447" lon="-2.0015900000000002">
        <ele>1057</ele>
      </trkpt>
      <trkpt lat="42.95648" lon="-2.001671">
        <ele>1057</ele>
      </trkpt>
      <trkpt lat="42.956513" lon="-2.0017339999999999">
        <ele>1056</ele>
      </trkpt>
      <trkpt lat="42.956539" lon="-2.0017610000000001">
        <ele>1055</ele>
      </trkpt>
      <trkpt lat="42.956566" lon="-2.0017969999999998">
        <ele>1055</ele>
      </trkpt>
      <trkpt lat="42.956638" lon="-2.001833">
        <ele>1054</ele>
      </trkpt>
      <trkpt lat="42.956703" lon="-2.0018600000000002">
        <ele>1052</ele>
      </trkpt>
      <trkpt lat="42.956776" lon="-2.0018509999999998">
        <ele>1051</ele>
      </trkpt>
      <trkpt lat="42.956868" lon="-2.001833">
        <ele>1049</ele>
      </trkpt>
      <trkpt lat="42.956927" lon="-2.0017969999999998">
        <ele>1048</ele>
      </trkpt>
      <trkpt lat="42.956993" lon="-2.0016980000000002">
        <ele>1046</ele>
      </trkpt>
      <trkpt lat="42.957032" lon="-2.0015809999999998">
        <ele>1045</ele>
      </trkpt>
      <trkpt lat="42.957275" lon="-2.0005660000000001">
        <ele>1044</ele>
      </trkpt>
      <trkpt lat="42.957427" lon="-1.999973">
        <ele>1041</ele>
      </trkpt>
      <trkpt lat="42.95761" lon="-1.999398">
        <ele>1030</ele>
      </trkpt>
      <trkpt lat="42.957854" lon="-1.9987239999999999">
        <ele>1028</ele>
      </trkpt>
      <trkpt lat="42.957973" lon="-1.9984010000000001">
        <ele>1026</ele>
      </trkpt>
      <trkpt lat="42.958064" lon="-1.9981949999999999">
        <ele>1025</ele>
      </trkpt>
      <trkpt lat="42.958189" lon="-1.9980420000000001">
        <ele>1023</ele>
      </trkpt>
      <trkpt lat="42.958294" lon="-1.997943">
        <ele>1023</ele>
      </trkpt>
      <trkpt lat="42.958393" lon="-1.9978800000000001">
        <ele>1023</ele>
      </trkpt>
      <trkpt lat="42.958531" lon="-1.9978260000000001">
        <ele>1023</ele>
      </trkpt>
      <trkpt lat="42.958597" lon="-1.9978180000000001">
        <ele>1023</ele>
      </trkpt>
      <trkpt lat="42.959202" lon="-1.997908">
        <ele>1022</ele>
      </trkpt>
      <trkpt lat="42.959379" lon="-1.997916">
        <ele>1021</ele>
      </trkpt>
      <trkpt lat="42.959524" lon="-1.997889">
        <ele>1020</ele>
      </trkpt>
      <trkpt lat="42.959675" lon="-1.9978260000000001">
        <ele>1019</ele>
      </trkpt>
      <trkpt lat="42.960063" lon="-1.997638">
        <ele>1018</ele>
      </trkpt>
      <trkpt lat="42.960431" lon="-1.9974130000000001">
        <ele>1015</ele>
      </trkpt>
      <trkpt lat="42.960609" lon="-1.997342">
        <ele>1014</ele>
      </trkpt>
      <trkpt lat="42.960924" lon="-1.9972240000000001">
        <ele>1010</ele>
      </trkpt>
      <trkpt lat="42.961404" lon="-1.997063">
        <ele>1008</ele>
      </trkpt>
      <trkpt lat="42.961581" lon="-1.99699">
        <ele>1007</ele>
      </trkpt>
      <trkpt lat="42.96195" lon="-1.996793">
        <ele>1007</ele>
      </trkpt>
      <trkpt lat="42.962055" lon="-1.9967299999999999">
        <ele>1006</ele>
      </trkpt>
      <trkpt lat="42.96214" lon="-1.996667">
        <ele>1005</ele>
      </trkpt>
      <trkpt lat="42.962206" lon="-1.9966140000000001">
        <ele>1004</ele>
      </trkpt>
      <trkpt lat="42.962298" lon="-1.996497">
        <ele>1003</ele>
      </trkpt>
      <trkpt lat="42.96243" lon="-1.996264">
        <ele>999</ele>
      </trkpt>
      <trkpt lat="42.962627" lon="-1.995814">
        <ele>992</ele>
      </trkpt>
      <trkpt lat="42.962739" lon="-1.9955350000000001">
        <ele>990</ele>
      </trkpt>
      <trkpt lat="42.962817" lon="-1.9953190000000001">
        <ele>988</ele>
      </trkpt>
      <trkpt lat="42.962876" lon="-1.9950859999999999">
        <ele>991</ele>
      </trkpt>
      <trkpt lat="42.962909" lon="-1.99488">
        <ele>992</ele>
      </trkpt>
      <trkpt lat="42.962943" lon="-1.994637">
        <ele>991</ele>
      </trkpt>
      <trkpt lat="42.963028" lon="-1.993595">
        <ele>988</ele>
      </trkpt>
      <trkpt lat="42.963067" lon="-1.993325">
        <ele>987</ele>
      </trkpt>
      <trkpt lat="42.963113" lon="-1.9930559999999999">
        <ele>985</ele>
      </trkpt>
      <trkpt lat="42.963448" lon="-1.991403">
        <ele>977</ele>
      </trkpt>
      <trkpt lat="42.963547" lon="-1.99091">
        <ele>975</ele>
      </trkpt>
      <trkpt lat="42.9636" lon="-1.9906219999999999">
        <ele>976</ele>
      </trkpt>
      <trkpt lat="42.963633" lon="-1.990461">
        <ele>977</ele>
      </trkpt>
      <trkpt lat="42.96383" lon="-1.9894449999999999">
        <ele>982</ele>
      </trkpt>
      <trkpt lat="42.963889" lon="-1.989193">
        <ele>982</ele>
      </trkpt>
      <trkpt lat="42.963968" lon="-1.9889140000000001">
        <ele>982</ele>
      </trkpt>
      <trkpt lat="42.964046" lon="-1.9887269999999999">
        <ele>983</ele>
      </trkpt>
      <trkpt lat="42.964119" lon="-1.9885740000000001">
        <ele>984</ele>
      </trkpt>
      <trkpt lat="42.965486" lon="-1.986067">
        <ele>1000</ele>
      </trkpt>
      <trkpt lat="42.965612" lon="-1.9858340000000001">
        <ele>1002</ele>
      </trkpt>
      <trkpt lat="42.96569" lon="-1.985654">
        <ele>1004</ele>
      </trkpt>
      <trkpt lat="42.965743" lon="-1.9854480000000001">
        <ele>1005</ele>
      </trkpt>
      <trkpt lat="42.965743" lon="-1.98525">
        <ele>1006</ele>
      </trkpt>
      <trkpt lat="42.965605" lon="-1.9840549999999999">
        <ele>1004</ele>
      </trkpt>
      <trkpt lat="42.965559" lon="-1.983876">
        <ele>1005</ele>
      </trkpt>
      <trkpt lat="42.9655" lon="-1.9837320000000001">
        <ele>1006</ele>
      </trkpt>
      <trkpt lat="42.965427" lon="-1.983587">
        <ele>1006</ele>
      </trkpt>
      <trkpt lat="42.965335" lon="-1.983436">
        <ele>1006</ele>
      </trkpt>
      <trkpt lat="42.965052" lon="-1.9830399999999999">
        <ele>1006</ele>
      </trkpt>
      <trkpt lat="42.964974" lon="-1.9828779999999999">
        <ele>1005</ele>
      </trkpt>
      <trkpt lat="42.964901" lon="-1.9826900000000001">
        <ele>1006</ele>
      </trkpt>
      <trkpt lat="42.964875" lon="-1.9825189999999999">
        <ele>1007</ele>
      </trkpt>
      <trkpt lat="42.964862" lon="-1.9814499999999999">
        <ele>1009</ele>
      </trkpt>
      <trkpt lat="42.964822" lon="-1.980308">
        <ele>1005</ele>
      </trkpt>
      <trkpt lat="42.964796" lon="-1.9801299999999999">
        <ele>1004</ele>
      </trkpt>
      <trkpt lat="42.964684" lon="-1.9797419999999999">
        <ele>1003</ele>
      </trkpt>
      <trkpt lat="42.964651" lon="-1.9795640000000001">
        <ele>1004</ele>
      </trkpt>
      <trkpt lat="42.964665" lon="-1.9793559999999999">
        <ele>1004</ele>
      </trkpt>
      <trkpt lat="42.96473" lon="-1.979069">
        <ele>1004</ele>
      </trkpt>
      <trkpt lat="42.964895" lon="-1.9785839999999999">
        <ele>997</ele>
      </trkpt>
      <trkpt lat="42.965125" lon="-1.9778210000000001">
        <ele>991</ele>
      </trkpt>
      <trkpt lat="42.965243" lon="-1.977417">
        <ele>987</ele>
      </trkpt>
      <trkpt lat="42.965322" lon="-1.9771209999999999">
        <ele>985</ele>
      </trkpt>
      <trkpt lat="42.965355" lon="-1.9768950000000001">
        <ele>986</ele>
      </trkpt>
      <trkpt lat="42.965408" lon="-1.9764729999999999">
        <ele>988</ele>
      </trkpt>
      <trkpt lat="42.965453" lon="-1.9762299999999999">
        <ele>987</ele>
      </trkpt>
      <trkpt lat="42.965532" lon="-1.9760329999999999">
        <ele>985</ele>
      </trkpt>
      <trkpt lat="42.965624" lon="-1.9758990000000001">
        <ele>984</ele>
      </trkpt>
      <trkpt lat="42.965736" lon="-1.975746">
        <ele>983</ele>
      </trkpt>
      <trkpt lat="42.965887" lon="-1.975557">
        <ele>982</ele>
      </trkpt>
      <trkpt lat="42.965953" lon="-1.975484">
        <ele>981</ele>
      </trkpt>
      <trkpt lat="42.966013" lon="-1.9754130000000001">
        <ele>981</ele>
      </trkpt>
      <trkpt lat="42.966111" lon="-1.9753240000000001">
        <ele>980</ele>
      </trkpt>
      <trkpt lat="42.96621" lon="-1.9752700000000001">
        <ele>979</ele>
      </trkpt>
      <trkpt lat="42.966321" lon="-1.9752339999999999">
        <ele>978</ele>
      </trkpt>
      <trkpt lat="42.966611" lon="-1.9751879999999999">
        <ele>973</ele>
      </trkpt>
      <trkpt lat="42.966683" lon="-1.9751609999999999">
        <ele>972</ele>
      </trkpt>
      <trkpt lat="42.966794" lon="-1.9751080000000001">
        <ele>971</ele>
      </trkpt>
      <trkpt lat="42.966886" lon="-1.9750270000000001">
        <ele>970</ele>
      </trkpt>
      <trkpt lat="42.966985" lon="-1.974901">
        <ele>969</ele>
      </trkpt>
      <trkpt lat="42.967097" lon="-1.974658">
        <ele>969</ele>
      </trkpt>
      <trkpt lat="42.967169" lon="-1.9744710000000001">
        <ele>969</ele>
      </trkpt>
      <trkpt lat="42.96736" lon="-1.973895">
        <ele>965</ele>
      </trkpt>
      <trkpt lat="42.967537" lon="-1.973374">
        <ele>960</ele>
      </trkpt>
      <trkpt lat="42.967669" lon="-1.972987">
        <ele>957</ele>
      </trkpt>
      <trkpt lat="42.967741" lon="-1.9727269999999999">
        <ele>956</ele>
      </trkpt>
      <trkpt lat="42.967781" lon="-1.972521">
        <ele>957</ele>
      </trkpt>
      <trkpt lat="42.967826" lon="-1.9721709999999999">
        <ele>958</ele>
      </trkpt>
      <trkpt lat="42.96784" lon="-1.9717750000000001">
        <ele>960</ele>
      </trkpt>
      <trkpt lat="42.967859" lon="-1.970958">
        <ele>958</ele>
      </trkpt>
      <trkpt lat="42.967879" lon="-1.9705889999999999">
        <ele>957</ele>
      </trkpt>
      <trkpt lat="42.967905" lon="-1.9704189999999999">
        <ele>956</ele>
      </trkpt>
      <trkpt lat="42.967958" lon="-1.9702569999999999">
        <ele>955</ele>
      </trkpt>
      <trkpt lat="42.96803" lon="-1.9700869999999999">
        <ele>954</ele>
      </trkpt>
      <trkpt lat="42.968162" lon="-1.9698439999999999">
        <ele>953</ele>
      </trkpt>
      <trkpt lat="42.968215" lon="-1.969708">
        <ele>951</ele>
      </trkpt>
      <trkpt lat="42.968241" lon="-1.9695739999999999">
        <ele>951</ele>
      </trkpt>
      <trkpt lat="42.968253" lon="-1.9694480000000001">
        <ele>950</ele>
      </trkpt>
      <trkpt lat="42.968247" lon="-1.969287">
        <ele>950</ele>
      </trkpt>
      <trkpt lat="42.968234" lon="-1.969179">
        <ele>950</ele>
      </trkpt>
      <trkpt lat="42.968215" lon="-1.9690890000000001">
        <ele>949</ele>
      </trkpt>
      <trkpt lat="42.968135" lon="-1.968855">
        <ele>949</ele>
      </trkpt>
      <trkpt lat="42.967814" lon="-1.967921">
        <ele>952</ele>
      </trkpt>
      <trkpt lat="42.967781" lon="-1.9677770000000001">
        <ele>953</ele>
      </trkpt>
      <trkpt lat="42.967761" lon="-1.96766">
        <ele>954</ele>
      </trkpt>
      <trkpt lat="42.967754" lon="-1.9675530000000001">
        <ele>954</ele>
      </trkpt>
      <trkpt lat="42.967754" lon="-1.9673639999999999">
        <ele>955</ele>
      </trkpt>
      <trkpt lat="42.967787" lon="-1.967058">
        <ele>955</ele>
      </trkpt>
      <trkpt lat="42.967833" lon="-1.966574">
        <ele>954</ele>
      </trkpt>
      <trkpt lat="42.967886" lon="-1.966035">
        <ele>954</ele>
      </trkpt>
      <trkpt lat="42.967945" lon="-1.9655320000000001">
        <ele>954</ele>
      </trkpt>
      <trkpt lat="42.967991" lon="-1.9652989999999999">
        <ele>953</ele>
      </trkpt>
      <trkpt lat="42.968083" lon="-1.9649840000000001">
        <ele>950</ele>
      </trkpt>
      <trkpt lat="42.968175" lon="-1.9648129999999999">
        <ele>947</ele>
      </trkpt>
      <trkpt lat="42.968253" lon="-1.9646779999999999">
        <ele>945</ele>
      </trkpt>
      <trkpt lat="42.968333" lon="-1.96458">
        <ele>944</ele>
      </trkpt>
      <trkpt lat="42.968424" lon="-1.9644980000000001">
        <ele>942</ele>
      </trkpt>
      <trkpt lat="42.968616" lon="-1.9643470000000001">
        <ele>940</ele>
      </trkpt>
      <trkpt lat="42.968714" lon="-1.964229">
        <ele>939</ele>
      </trkpt>
      <trkpt lat="42.968806" lon="-1.9640770000000001">
        <ele>937</ele>
      </trkpt>
      <trkpt lat="42.969161" lon="-1.963187">
        <ele>934</ele>
      </trkpt>
      <trkpt lat="42.969247" lon="-1.9628730000000001">
        <ele>933</ele>
      </trkpt>
      <trkpt lat="42.969299" lon="-1.9626129999999999">
        <ele>932</ele>
      </trkpt>
      <trkpt lat="42.969299" lon="-1.962442">
        <ele>932</ele>
      </trkpt>
      <trkpt lat="42.969266" lon="-1.9621900000000001">
        <ele>932</ele>
      </trkpt>
      <trkpt lat="42.969187" lon="-1.961768">
        <ele>934</ele>
      </trkpt>
      <trkpt lat="42.969174" lon="-1.961624">
        <ele>934</ele>
      </trkpt>
      <trkpt lat="42.969181" lon="-1.961517">
        <ele>935</ele>
      </trkpt>
      <trkpt lat="42.969207" lon="-1.9613719999999999">
        <ele>935</ele>
      </trkpt>
      <trkpt lat="42.969299" lon="-1.961157">
        <ele>934</ele>
      </trkpt>
      <trkpt lat="42.969397" lon="-1.9609859999999999">
        <ele>932</ele>
      </trkpt>
      <trkpt lat="42.969693" lon="-1.960502">
        <ele>925</ele>
      </trkpt>
      <trkpt lat="42.969772" lon="-1.9603390000000001">
        <ele>923</ele>
      </trkpt>
      <trkpt lat="42.969792" lon="-1.96024">
        <ele>922</ele>
      </trkpt>
      <trkpt lat="42.969812" lon="-1.960097">
        <ele>920</ele>
      </trkpt>
      <trkpt lat="42.969818" lon="-1.9599530000000001">
        <ele>919</ele>
      </trkpt>
      <trkpt lat="42.969805" lon="-1.9595940000000001">
        <ele>917</ele>
      </trkpt>
      <trkpt lat="42.969805" lon="-1.959387">
        <ele>916</ele>
      </trkpt>
      <trkpt lat="42.969792" lon="-1.959198">
        <ele>916</ele>
      </trkpt>
      <trkpt lat="42.969779" lon="-1.9590730000000001">
        <ele>916</ele>
      </trkpt>
      <trkpt lat="42.969739" lon="-1.9589289999999999">
        <ele>916</ele>
      </trkpt>
      <trkpt lat="42.96968" lon="-1.958785">
        <ele>915</ele>
      </trkpt>
      <trkpt lat="42.969595" lon="-1.9586049999999999">
        <ele>915</ele>
      </trkpt>
      <trkpt lat="42.969555" lon="-1.958515">
        <ele>914</ele>
      </trkpt>
      <trkpt lat="42.969477" lon="-1.9583550000000001">
        <ele>914</ele>
      </trkpt>
      <trkpt lat="42.969411" lon="-1.9581649999999999">
        <ele>912</ele>
      </trkpt>
      <trkpt lat="42.969352" lon="-1.957905">
        <ele>909</ele>
      </trkpt>
      <trkpt lat="42.969285" lon="-1.957689">
        <ele>906</ele>
      </trkpt>
      <trkpt lat="42.968944" lon="-1.9569080000000001">
        <ele>897</ele>
      </trkpt>
      <trkpt lat="42.968635" lon="-1.9561980000000001">
        <ele>892</ele>
      </trkpt>
      <trkpt lat="42.968386" lon="-1.9556420000000001">
        <ele>893</ele>
      </trkpt>
      <trkpt lat="42.968267" lon="-1.955355">
        <ele>896</ele>
      </trkpt>
      <trkpt lat="42.968234" lon="-1.9551750000000001">
        <ele>896</ele>
      </trkpt>
      <trkpt lat="42.968221" lon="-1.9549859999999999">
        <ele>898</ele>
      </trkpt>
      <trkpt lat="42.96826" lon="-1.954823">
        <ele>898</ele>
      </trkpt>
      <trkpt lat="42.968326" lon="-1.95468">
        <ele>897</ele>
      </trkpt>
      <trkpt lat="42.968517" lon="-1.954393">
        <ele>894</ele>
      </trkpt>
      <trkpt lat="42.968654" lon="-1.9541409999999999">
        <ele>892</ele>
      </trkpt>
      <trkpt lat="42.968714" lon="-1.9540150000000001">
        <ele>890</ele>
      </trkpt>
      <trkpt lat="42.968832" lon="-1.953692">
        <ele>888</ele>
      </trkpt>
      <trkpt lat="42.968977" lon="-1.9530989999999999">
        <ele>885</ele>
      </trkpt>
      <trkpt lat="42.9692" lon="-1.9524699999999999">
        <ele>871</ele>
      </trkpt>
      <trkpt lat="42.969253" lon="-1.9522820000000001">
        <ele>867</ele>
      </trkpt>
      <trkpt lat="42.969273" lon="-1.9521470000000001">
        <ele>865</ele>
      </trkpt>
      <trkpt lat="42.969285" lon="-1.9520029999999999">
        <ele>863</ele>
      </trkpt>
      <trkpt lat="42.969285" lon="-1.951797">
        <ele>861</ele>
      </trkpt>
      <trkpt lat="42.969259" lon="-1.9516530000000001">
        <ele>858</ele>
      </trkpt>
      <trkpt lat="42.969194" lon="-1.951365">
        <ele>852</ele>
      </trkpt>
      <trkpt lat="42.969141" lon="-1.9511769999999999">
        <ele>850</ele>
      </trkpt>
      <trkpt lat="42.969095" lon="-1.9510780000000001">
        <ele>849</ele>
      </trkpt>
      <trkpt lat="42.969036" lon="-1.9509879999999999">
        <ele>849</ele>
      </trkpt>
      <trkpt lat="42.96897" lon="-1.9509069999999999">
        <ele>849</ele>
      </trkpt>
      <trkpt lat="42.968431" lon="-1.9503509999999999">
        <ele>853</ele>
      </trkpt>
      <trkpt lat="42.968365" lon="-1.950261">
        <ele>854</ele>
      </trkpt>
      <trkpt lat="42.968326" lon="-1.950189">
        <ele>855</ele>
      </trkpt>
      <trkpt lat="42.9683" lon="-1.950099">
        <ele>856</ele>
      </trkpt>
      <trkpt lat="42.968293" lon="-1.950018">
        <ele>857</ele>
      </trkpt>
      <trkpt lat="42.9683" lon="-1.9499280000000001">
        <ele>857</ele>
      </trkpt>
      <trkpt lat="42.968313" lon="-1.9498470000000001">
        <ele>858</ele>
      </trkpt>
      <trkpt lat="42.968359" lon="-1.94973">
        <ele>857</ele>
      </trkpt>
      <trkpt lat="42.968536" lon="-1.949443">
        <ele>854</ele>
      </trkpt>
      <trkpt lat="42.968707" lon="-1.9491830000000001">
        <ele>850</ele>
      </trkpt>
      <trkpt lat="42.968806" lon="-1.949012">
        <ele>848</ele>
      </trkpt>
      <trkpt lat="42.968858" lon="-1.948868">
        <ele>846</ele>
      </trkpt>
      <trkpt lat="42.968918" lon="-1.9486969999999999">
        <ele>843</ele>
      </trkpt>
      <trkpt lat="42.968944" lon="-1.9485710000000001">
        <ele>841</ele>
      </trkpt>
      <trkpt lat="42.968964" lon="-1.9483569999999999">
        <ele>839</ele>
      </trkpt>
      <trkpt lat="42.96897" lon="-1.9481489999999999">
        <ele>837</ele>
      </trkpt>
      <trkpt lat="42.968951" lon="-1.947978">
        <ele>836</ele>
      </trkpt>
      <trkpt lat="42.968918" lon="-1.947818">
        <ele>834</ele>
      </trkpt>
      <trkpt lat="42.968793" lon="-1.9474940000000001">
        <ele>834</ele>
      </trkpt>
      <trkpt lat="42.96876" lon="-1.947349">
        <ele>833</ele>
      </trkpt>
      <trkpt lat="42.968753" lon="-1.9471970000000001">
        <ele>832</ele>
      </trkpt>
      <trkpt lat="42.968766" lon="-1.947036">
        <ele>831</ele>
      </trkpt>
      <trkpt lat="42.968852" lon="-1.9467570000000001">
        <ele>831</ele>
      </trkpt>
      <trkpt lat="42.969029" lon="-1.9462729999999999">
        <ele>829</ele>
      </trkpt>
      <trkpt lat="42.969128" lon="-1.9459839999999999">
        <ele>827</ele>
      </trkpt>
      <trkpt lat="42.969194" lon="-1.945724">
        <ele>825</ele>
      </trkpt>
      <trkpt lat="42.969247" lon="-1.9453549999999999">
        <ele>820</ele>
      </trkpt>
      <trkpt lat="42.969292" lon="-1.9449959999999999">
        <ele>816</ele>
      </trkpt>
      <trkpt lat="42.969332" lon="-1.9448890000000001">
        <ele>815</ele>
      </trkpt>
      <trkpt lat="42.969371" lon="-1.9448080000000001">
        <ele>814</ele>
      </trkpt>
      <trkpt lat="42.969444" lon="-1.944699">
        <ele>812</ele>
      </trkpt>
      <trkpt lat="42.969562" lon="-1.9446019999999999">
        <ele>807</ele>
      </trkpt>
      <trkpt lat="42.969627" lon="-1.944529">
        <ele>805</ele>
      </trkpt>
      <trkpt lat="42.970049" lon="-1.9442600000000001">
        <ele>795</ele>
      </trkpt>
      <trkpt lat="42.970101" lon="-1.9442060000000001">
        <ele>794</ele>
      </trkpt>
      <trkpt lat="42.970167" lon="-1.944116">
        <ele>792</ele>
      </trkpt>
      <trkpt lat="42.970232" lon="-1.943973">
        <ele>790</ele>
      </trkpt>
      <trkpt lat="42.970258" lon="-1.943883">
        <ele>789</ele>
      </trkpt>
      <trkpt lat="42.970265" lon="-1.9437660000000001">
        <ele>788</ele>
      </trkpt>
      <trkpt lat="42.970258" lon="-1.943613">
        <ele>787</ele>
      </trkpt>
      <trkpt lat="42.970252" lon="-1.94347">
        <ele>786</ele>
      </trkpt>
      <trkpt lat="42.970239" lon="-1.943244">
        <ele>785</ele>
      </trkpt>
      <trkpt lat="42.970252" lon="-1.9430829999999999">
        <ele>785</ele>
      </trkpt>
      <trkpt lat="42.970305" lon="-1.9427589999999999">
        <ele>784</ele>
      </trkpt>
      <trkpt lat="42.970298" lon="-1.942634">
        <ele>784</ele>
      </trkpt>
      <trkpt lat="42.970279" lon="-1.942517">
        <ele>784</ele>
      </trkpt>
      <trkpt lat="42.970239" lon="-1.9424090000000001">
        <ele>785</ele>
      </trkpt>
      <trkpt lat="42.97014" lon="-1.942229">
        <ele>786</ele>
      </trkpt>
      <trkpt lat="42.970042" lon="-1.9420489999999999">
        <ele>789</ele>
      </trkpt>
      <trkpt lat="42.970009" lon="-1.9419519999999999">
        <ele>790</ele>
      </trkpt>
      <trkpt lat="42.969996" lon="-1.9418519999999999">
        <ele>791</ele>
      </trkpt>
      <trkpt lat="42.969989" lon="-1.9417530000000001">
        <ele>793</ele>
      </trkpt>
      <trkpt lat="42.970016" lon="-1.9416359999999999">
        <ele>793</ele>
      </trkpt>
      <trkpt lat="42.970055" lon="-1.9415290000000001">
        <ele>793</ele>
      </trkpt>
      <trkpt lat="42.97012" lon="-1.9414199999999999">
        <ele>791</ele>
      </trkpt>
      <trkpt lat="42.970364" lon="-1.9411160000000001">
        <ele>784</ele>
      </trkpt>
      <trkpt lat="42.970495" lon="-1.9409000000000001">
        <ele>780</ele>
      </trkpt>
      <trkpt lat="42.970574" lon="-1.9406840000000001">
        <ele>779</ele>
      </trkpt>
      <trkpt lat="42.97062" lon="-1.9405140000000001">
        <ele>779</ele>
      </trkpt>
      <trkpt lat="42.97064" lon="-1.9401539999999999">
        <ele>778</ele>
      </trkpt>
      <trkpt lat="42.970666" lon="-1.9399839999999999">
        <ele>777</ele>
      </trkpt>
      <trkpt lat="42.970751" lon="-1.939751">
        <ele>774</ele>
      </trkpt>
      <trkpt lat="42.970837" lon="-1.939516">
        <ele>771</ele>
      </trkpt>
      <trkpt lat="42.970883" lon="-1.9393549999999999">
        <ele>770</ele>
      </trkpt>
      <trkpt lat="42.970936" lon="-1.939122">
        <ele>768</ele>
      </trkpt>
      <trkpt lat="42.970975" lon="-1.9389149999999999">
        <ele>766</ele>
      </trkpt>
      <trkpt lat="42.971008" lon="-1.9388069999999999">
        <ele>765</ele>
      </trkpt>
      <trkpt lat="42.97114" lon="-1.9386270000000001">
        <ele>763</ele>
      </trkpt>
      <trkpt lat="42.971192" lon="-1.93851">
        <ele>762</ele>
      </trkpt>
      <trkpt lat="42.971225" lon="-1.9384030000000001">
        <ele>761</ele>
      </trkpt>
      <trkpt lat="42.971271" lon="-1.938124">
        <ele>759</ele>
      </trkpt>
      <trkpt lat="42.97133" lon="-1.9379630000000001">
        <ele>759</ele>
      </trkpt>
      <trkpt lat="42.971508" lon="-1.9375309999999999">
        <ele>759</ele>
      </trkpt>
      <trkpt lat="42.971632" lon="-1.9371910000000001">
        <ele>758</ele>
      </trkpt>
      <trkpt lat="42.971685" lon="-1.937001">
        <ele>757</ele>
      </trkpt>
      <trkpt lat="42.971777" lon="-1.936839">
        <ele>756</ele>
      </trkpt>
      <trkpt lat="42.971862" lon="-1.936768">
        <ele>755</ele>
      </trkpt>
      <trkpt lat="42.97204" lon="-1.9366859999999999">
        <ele>754</ele>
      </trkpt>
      <trkpt lat="42.972125" lon="-1.93666">
        <ele>753</ele>
      </trkpt>
      <trkpt lat="42.972204" lon="-1.936596">
        <ele>752</ele>
      </trkpt>
      <trkpt lat="42.972277" lon="-1.936499">
        <ele>750</ele>
      </trkpt>
      <trkpt lat="42.972322" lon="-1.936382">
        <ele>749</ele>
      </trkpt>
      <trkpt lat="42.972355" lon="-1.93621">
        <ele>748</ele>
      </trkpt>
      <trkpt lat="42.972434" lon="-1.93577">
        <ele>748</ele>
      </trkpt>
      <trkpt lat="42.972454" lon="-1.9356899999999999">
        <ele>748</ele>
      </trkpt>
      <trkpt lat="42.972461" lon="-1.935546">
        <ele>748</ele>
      </trkpt>
      <trkpt lat="42.972447" lon="-1.935357">
        <ele>749</ele>
      </trkpt>
      <trkpt lat="42.972414" lon="-1.934998">
        <ele>748</ele>
      </trkpt>
      <trkpt lat="42.972395" lon="-1.9347909999999999">
        <ele>747</ele>
      </trkpt>
      <trkpt lat="42.972408" lon="-1.934585">
        <ele>745</ele>
      </trkpt>
      <trkpt lat="42.972447" lon="-1.9343779999999999">
        <ele>742</ele>
      </trkpt>
      <trkpt lat="42.972493" lon="-1.9342079999999999">
        <ele>740</ele>
      </trkpt>
      <trkpt lat="42.972592" lon="-1.9339649999999999">
        <ele>737</ele>
      </trkpt>
      <trkpt lat="42.972835" lon="-1.9334169999999999">
        <ele>737</ele>
      </trkpt>
      <trkpt lat="42.972927" lon="-1.9332290000000001">
        <ele>737</ele>
      </trkpt>
      <trkpt lat="42.973012" lon="-1.933111">
        <ele>737</ele>
      </trkpt>
      <trkpt lat="42.973105" lon="-1.93303">
        <ele>738</ele>
      </trkpt>
      <trkpt lat="42.973236" lon="-1.9329590000000001">
        <ele>738</ele>
      </trkpt>
      <trkpt lat="42.973473" lon="-1.9328430000000001">
        <ele>736</ele>
      </trkpt>
      <trkpt lat="42.973605" lon="-1.9327799999999999">
        <ele>735</ele>
      </trkpt>
      <trkpt lat="42.973985" lon="-1.93269">
        <ele>730</ele>
      </trkpt>
      <trkpt lat="42.974419" lon="-1.9326270000000001">
        <ele>728</ele>
      </trkpt>
      <trkpt lat="42.974504" lon="-1.932617">
        <ele>728</ele>
      </trkpt>
      <trkpt lat="42.974656" lon="-1.9325810000000001">
        <ele>727</ele>
      </trkpt>
      <trkpt lat="42.974833" lon="-1.932518">
        <ele>726</ele>
      </trkpt>
      <trkpt lat="42.975984" lon="-1.9319170000000001">
        <ele>711</ele>
      </trkpt>
      <trkpt lat="42.976089" lon="-1.931818">
        <ele>711</ele>
      </trkpt>
      <trkpt lat="42.976167" lon="-1.9317279999999999">
        <ele>710</ele>
      </trkpt>
      <trkpt lat="42.97624" lon="-1.9315580000000001">
        <ele>709</ele>
      </trkpt>
      <trkpt lat="42.976292" lon="-1.931306">
        <ele>709</ele>
      </trkpt>
      <trkpt lat="42.976319" lon="-1.930965">
        <ele>711</ele>
      </trkpt>
      <trkpt lat="42.976299" lon="-1.930704">
        <ele>712</ele>
      </trkpt>
      <trkpt lat="42.976273" lon="-1.9305429999999999">
        <ele>714</ele>
      </trkpt>
      <trkpt lat="42.9762" lon="-1.9303360000000001">
        <ele>715</ele>
      </trkpt>
      <trkpt lat="42.975904" lon="-1.9296439999999999">
        <ele>718</ele>
      </trkpt>
      <trkpt lat="42.975845" lon="-1.9294279999999999">
        <ele>718</ele>
      </trkpt>
      <trkpt lat="42.975832" lon="-1.9291590000000001">
        <ele>717</ele>
      </trkpt>
      <trkpt lat="42.975845" lon="-1.9289350000000001">
        <ele>717</ele>
      </trkpt>
      <trkpt lat="42.975984" lon="-1.92757">
        <ele>711</ele>
      </trkpt>
      <trkpt lat="42.976134" lon="-1.9262030000000001">
        <ele>701</ele>
      </trkpt>
      <trkpt lat="42.976161" lon="-1.926015">
        <ele>700</ele>
      </trkpt>
      <trkpt lat="42.976194" lon="-1.925872">
        <ele>699</ele>
      </trkpt>
      <trkpt lat="42.976253" lon="-1.925673">
        <ele>698</ele>
      </trkpt>
      <trkpt lat="42.976463" lon="-1.92509">
        <ele>697</ele>
      </trkpt>
      <trkpt lat="42.976496" lon="-1.9249639999999999">
        <ele>695</ele>
      </trkpt>
      <trkpt lat="42.976529" lon="-1.924803">
        <ele>694</ele>
      </trkpt>
      <trkpt lat="42.976542" lon="-1.9245779999999999">
        <ele>692</ele>
      </trkpt>
      <trkpt lat="42.976594" lon="-1.9234819999999999">
        <ele>696</ele>
      </trkpt>
      <trkpt lat="42.976608" lon="-1.9233199999999999">
        <ele>697</ele>
      </trkpt>
      <trkpt lat="42.976641" lon="-1.9231590000000001">
        <ele>697</ele>
      </trkpt>
      <trkpt lat="42.976864" lon="-1.9221969999999999">
        <ele>700</ele>
      </trkpt>
      <trkpt lat="42.97691" lon="-1.9220440000000001">
        <ele>700</ele>
      </trkpt>
      <trkpt lat="42.976983" lon="-1.921891">
        <ele>699</ele>
      </trkpt>
      <trkpt lat="42.977048" lon="-1.921767">
        <ele>698</ele>
      </trkpt>
      <trkpt lat="42.977311" lon="-1.9213979999999999">
        <ele>700</ele>
      </trkpt>
      <trkpt lat="42.977514" lon="-1.921092">
        <ele>701</ele>
      </trkpt>
      <trkpt lat="42.977607" lon="-1.9209750000000001">
        <ele>701</ele>
      </trkpt>
      <trkpt lat="42.977679" lon="-1.920903">
        <ele>700</ele>
      </trkpt>
      <trkpt lat="42.977811" lon="-1.920849">
        <ele>699</ele>
      </trkpt>
      <trkpt lat="42.977915" lon="-1.9208320000000001">
        <ele>697</ele>
      </trkpt>
      <trkpt lat="42.978034" lon="-1.920841">
        <ele>695</ele>
      </trkpt>
      <trkpt lat="42.978349" lon="-1.920922">
        <ele>692</ele>
      </trkpt>
      <trkpt lat="42.978619" lon="-1.9209849999999999">
        <ele>689</ele>
      </trkpt>
      <trkpt lat="42.978829" lon="-1.9210290000000001">
        <ele>687</ele>
      </trkpt>
      <trkpt lat="42.978954" lon="-1.921038">
        <ele>687</ele>
      </trkpt>
      <trkpt lat="42.979125" lon="-1.921038">
        <ele>687</ele>
      </trkpt>
      <trkpt lat="42.979309" lon="-1.9210210000000001">
        <ele>687</ele>
      </trkpt>
      <trkpt lat="42.979513" lon="-1.920966">
        <ele>686</ele>
      </trkpt>
      <trkpt lat="42.980282" lon="-1.9207510000000001">
        <ele>680</ele>
      </trkpt>
      <trkpt lat="42.980505" lon="-1.920706">
        <ele>679</ele>
      </trkpt>
      <trkpt lat="42.980656" lon="-1.920715">
        <ele>679</ele>
      </trkpt>
      <trkpt lat="42.980781" lon="-1.9207510000000001">
        <ele>679</ele>
      </trkpt>
      <trkpt lat="42.980899" lon="-1.9207959999999999">
        <ele>680</ele>
      </trkpt>
      <trkpt lat="42.981793" lon="-1.9212450000000001">
        <ele>683</ele>
      </trkpt>
      <trkpt lat="42.981833" lon="-1.921262">
        <ele>682</ele>
      </trkpt>
      <trkpt lat="42.981958" lon="-1.921308">
        <ele>681</ele>
      </trkpt>
      <trkpt lat="42.98203" lon="-1.9213169999999999">
        <ele>681</ele>
      </trkpt>
      <trkpt lat="42.982155" lon="-1.9213169999999999">
        <ele>680</ele>
      </trkpt>
      <trkpt lat="42.982306" lon="-1.9212720000000001">
        <ele>679</ele>
      </trkpt>
      <trkpt lat="42.982805" lon="-1.9211279999999999">
        <ele>672</ele>
      </trkpt>
      <trkpt lat="42.982996" lon="-1.921065">
        <ele>670</ele>
      </trkpt>
      <trkpt lat="42.983318" lon="-1.920903">
        <ele>668</ele>
      </trkpt>
      <trkpt lat="42.983456" lon="-1.920849">
        <ele>668</ele>
      </trkpt>
      <trkpt lat="42.983541" lon="-1.9208590000000001">
        <ele>669</ele>
      </trkpt>
      <trkpt lat="42.983725" lon="-1.920885">
        <ele>670</ele>
      </trkpt>
      <trkpt lat="42.983804" lon="-1.920885">
        <ele>671</ele>
      </trkpt>
      <trkpt lat="42.983936" lon="-1.920841">
        <ele>670</ele>
      </trkpt>
      <trkpt lat="42.984468" lon="-1.920625">
        <ele>667</ele>
      </trkpt>
      <trkpt lat="42.984836" lon="-1.92049">
        <ele>668</ele>
      </trkpt>
      <trkpt lat="42.984941" lon="-1.920409">
        <ele>667</ele>
      </trkpt>
      <trkpt lat="42.985033" lon="-1.9203190000000001">
        <ele>667</ele>
      </trkpt>
      <trkpt lat="42.98529" lon="-1.9199790000000001">
        <ele>664</ele>
      </trkpt>
      <trkpt lat="42.985368" lon="-1.919889">
        <ele>663</ele>
      </trkpt>
      <trkpt lat="42.985434" lon="-1.919834">
        <ele>662</ele>
      </trkpt>
      <trkpt lat="42.985499" lon="-1.9198170000000001">
        <ele>662</ele>
      </trkpt>
      <trkpt lat="42.985558" lon="-1.919826">
        <ele>663</ele>
      </trkpt>
      <trkpt lat="42.985624" lon="-1.919853">
        <ele>663</ele>
      </trkpt>
      <trkpt lat="42.98571" lon="-1.919916">
        <ele>664</ele>
      </trkpt>
      <trkpt lat="42.986091" lon="-1.9202300000000001">
        <ele>667</ele>
      </trkpt>
      <trkpt lat="42.986269" lon="-1.920356">
        <ele>667</ele>
      </trkpt>
      <trkpt lat="42.986518" lon="-1.920499">
        <ele>665</ele>
      </trkpt>
      <trkpt lat="42.986584" lon="-1.9205620000000001">
        <ele>664</ele>
      </trkpt>
      <trkpt lat="42.986649" lon="-1.9206430000000001">
        <ele>664</ele>
      </trkpt>
      <trkpt lat="42.986702" lon="-1.9207510000000001">
        <ele>664</ele>
      </trkpt>
      <trkpt lat="42.986847" lon="-1.9211910000000001">
        <ele>663</ele>
      </trkpt>
      <trkpt lat="42.9869" lon="-1.921281">
        <ele>662</ele>
      </trkpt>
      <trkpt lat="42.986965" lon="-1.9213519999999999">
        <ele>661</ele>
      </trkpt>
      <trkpt lat="42.987241" lon="-1.921524">
        <ele>657</ele>
      </trkpt>
      <trkpt lat="42.987431" lon="-1.9216489999999999">
        <ele>654</ele>
      </trkpt>
      <trkpt lat="42.987504" lon="-1.921721">
        <ele>654</ele>
      </trkpt>
      <trkpt lat="42.987583" lon="-1.9217930000000001">
        <ele>652</ele>
      </trkpt>
      <trkpt lat="42.987885" lon="-1.92208">
        <ele>649</ele>
      </trkpt>
      <trkpt lat="42.988043" lon="-1.9222509999999999">
        <ele>650</ele>
      </trkpt>
      <trkpt lat="42.988154" lon="-1.9224300000000001">
        <ele>651</ele>
      </trkpt>
      <trkpt lat="42.988306" lon="-1.922763">
        <ele>653</ele>
      </trkpt>
      <trkpt lat="42.988371" lon="-1.9228620000000001">
        <ele>652</ele>
      </trkpt>
      <trkpt lat="42.988437" lon="-1.922906">
        <ele>650</ele>
      </trkpt>
      <trkpt lat="42.988503" lon="-1.922933">
        <ele>649</ele>
      </trkpt>
      <trkpt lat="42.988608" lon="-1.9229430000000001">
        <ele>646</ele>
      </trkpt>
      <trkpt lat="42.988785" lon="-1.9229160000000001">
        <ele>641</ele>
      </trkpt>
      <trkpt lat="42.98897" lon="-1.9228799999999999">
        <ele>639</ele>
      </trkpt>
      <trkpt lat="42.989041" lon="-1.9228890000000001">
        <ele>638</ele>
      </trkpt>
      <trkpt lat="42.989127" lon="-1.9229160000000001">
        <ele>638</ele>
      </trkpt>
      <trkpt lat="42.989193" lon="-1.922979">
        <ele>638</ele>
      </trkpt>
      <trkpt lat="42.98933" lon="-1.9231670000000001">
        <ele>638</ele>
      </trkpt>
      <trkpt lat="42.98935" lon="-1.923195">
        <ele>638</ele>
      </trkpt>
      <trkpt lat="42.989436" lon="-1.9232389999999999">
        <ele>638</ele>
      </trkpt>
      <trkpt lat="42.989705" lon="-1.9232480000000001">
        <ele>636</ele>
      </trkpt>
      <trkpt lat="42.989975" lon="-1.9232119999999999">
        <ele>633</ele>
      </trkpt>
      <trkpt lat="42.990106" lon="-1.923195">
        <ele>632</ele>
      </trkpt>
      <trkpt lat="42.990185" lon="-1.9231670000000001">
        <ele>632</ele>
      </trkpt>
      <trkpt lat="42.990402" lon="-1.9230149999999999">
        <ele>631</ele>
      </trkpt>
      <trkpt lat="42.990494" lon="-1.922987">
        <ele>630</ele>
      </trkpt>
      <trkpt lat="42.990579" lon="-1.922987">
        <ele>630</ele>
      </trkpt>
      <trkpt lat="42.990671" lon="-1.9229959999999999">
        <ele>630</ele>
      </trkpt>
      <trkpt lat="42.990743" lon="-1.923033">
        <ele>630</ele>
      </trkpt>
      <trkpt lat="42.990907" lon="-1.9231670000000001">
        <ele>630</ele>
      </trkpt>
      <trkpt lat="42.991" lon="-1.923203">
        <ele>630</ele>
      </trkpt>
      <trkpt lat="42.991072" lon="-1.923203">
        <ele>630</ele>
      </trkpt>
      <trkpt lat="42.991137" lon="-1.9231849999999999">
        <ele>629</ele>
      </trkpt>
      <trkpt lat="42.991276" lon="-1.9231050000000001">
        <ele>627</ele>
      </trkpt>
      <trkpt lat="42.991394" lon="-1.923006">
        <ele>625</ele>
      </trkpt>
      <trkpt lat="42.991827" lon="-1.9226190000000001">
        <ele>623</ele>
      </trkpt>
      <trkpt lat="42.991913" lon="-1.92252">
        <ele>623</ele>
      </trkpt>
      <trkpt lat="42.991979" lon="-1.9223859999999999">
        <ele>623</ele>
      </trkpt>
      <trkpt lat="42.992051" lon="-1.9221969999999999">
        <ele>624</ele>
      </trkpt>
      <trkpt lat="42.992097" lon="-1.9219999999999999">
        <ele>624</ele>
      </trkpt>
      <trkpt lat="42.992156" lon="-1.9218550000000001">
        <ele>625</ele>
      </trkpt>
      <trkpt lat="42.992248" lon="-1.9217040000000001">
        <ele>625</ele>
      </trkpt>
      <trkpt lat="42.992367" lon="-1.9215869999999999">
        <ele>626</ele>
      </trkpt>
      <trkpt lat="42.992471" lon="-1.921524">
        <ele>627</ele>
      </trkpt>
      <trkpt lat="42.992597" lon="-1.9214880000000001">
        <ele>627</ele>
      </trkpt>
      <trkpt lat="42.993891" lon="-1.921235">
        <ele>638</ele>
      </trkpt>
      <trkpt lat="42.994048" lon="-1.921235">
        <ele>638</ele>
      </trkpt>
      <trkpt lat="42.994502" lon="-1.921262">
        <ele>638</ele>
      </trkpt>
      <trkpt lat="42.99464" lon="-1.921254">
        <ele>638</ele>
      </trkpt>
      <trkpt lat="42.994712" lon="-1.921227">
        <ele>638</ele>
      </trkpt>
      <trkpt lat="42.994785" lon="-1.9211549999999999">
        <ele>637</ele>
      </trkpt>
      <trkpt lat="42.994883" lon="-1.9210290000000001">
        <ele>637</ele>
      </trkpt>
      <trkpt lat="42.995316" lon="-1.9204000000000001">
        <ele>638</ele>
      </trkpt>
      <trkpt lat="42.99577" lon="-1.919681">
        <ele>641</ele>
      </trkpt>
      <trkpt lat="42.996164" lon="-1.9190799999999999">
        <ele>642</ele>
      </trkpt>
      <trkpt lat="42.996637" lon="-1.918371">
        <ele>648</ele>
      </trkpt>
      <trkpt lat="42.996749" lon="-1.9181820000000001">
        <ele>649</ele>
      </trkpt>
      <trkpt lat="42.996841" lon="-1.9179930000000001">
        <ele>650</ele>
      </trkpt>
      <trkpt lat="42.996959" lon="-1.9176519999999999">
        <ele>652</ele>
      </trkpt>
      <trkpt lat="42.997163" lon="-1.9170400000000001">
        <ele>655</ele>
      </trkpt>
      <trkpt lat="42.997235" lon="-1.9167540000000001">
        <ele>655</ele>
      </trkpt>
      <trkpt lat="42.997255" lon="-1.916528">
        <ele>653</ele>
      </trkpt>
      <trkpt lat="42.997255" lon="-1.916331">
        <ele>651</ele>
      </trkpt>
      <trkpt lat="42.997215" lon="-1.9160349999999999">
        <ele>649</ele>
      </trkpt>
      <trkpt lat="42.997136" lon="-1.915559">
        <ele>646</ele>
      </trkpt>
      <trkpt lat="42.997117" lon="-1.915335">
        <ele>644</ele>
      </trkpt>
      <trkpt lat="42.997117" lon="-1.9151359999999999">
        <ele>643</ele>
      </trkpt>
      <trkpt lat="42.997136" lon="-1.914857">
        <ele>643</ele>
      </trkpt>
      <trkpt lat="42.997202" lon="-1.9145700000000001">
        <ele>643</ele>
      </trkpt>
      <trkpt lat="42.997347" lon="-1.91422">
        <ele>643</ele>
      </trkpt>
      <trkpt lat="42.997439" lon="-1.91405">
        <ele>643</ele>
      </trkpt>
      <trkpt lat="42.997688" lon="-1.9136010000000001">
        <ele>643</ele>
      </trkpt>
      <trkpt lat="42.997774" lon="-1.913411">
        <ele>643</ele>
      </trkpt>
      <trkpt lat="42.997852" lon="-1.9131689999999999">
        <ele>643</ele>
      </trkpt>
      <trkpt lat="42.997892" lon="-1.912981">
        <ele>644</ele>
      </trkpt>
      <trkpt lat="42.997912" lon="-1.912792">
        <ele>644</ele>
      </trkpt>
      <trkpt lat="42.997918" lon="-1.912612">
        <ele>644</ele>
      </trkpt>
      <trkpt lat="42.997925" lon="-1.9121360000000001">
        <ele>641</ele>
      </trkpt>
      <trkpt lat="42.997931" lon="-1.9117770000000001">
        <ele>640</ele>
      </trkpt>
      <trkpt lat="42.99803" lon="-1.9106620000000001">
        <ele>640</ele>
      </trkpt>
      <trkpt lat="42.998017" lon="-1.909737">
        <ele>638</ele>
      </trkpt>
      <trkpt lat="42.998017" lon="-1.9095299999999999">
        <ele>639</ele>
      </trkpt>
      <trkpt lat="42.997997" lon="-1.909243">
        <ele>641</ele>
      </trkpt>
      <trkpt lat="42.997978" lon="-1.9089830000000001">
        <ele>643</ele>
      </trkpt>
      <trkpt lat="42.997971" lon="-1.90883">
        <ele>644</ele>
      </trkpt>
      <trkpt lat="42.997971" lon="-1.908668">
        <ele>645</ele>
      </trkpt>
      <trkpt lat="42.997984" lon="-1.908398">
        <ele>646</ele>
      </trkpt>
      <trkpt lat="42.998063" lon="-1.9069069999999999">
        <ele>640</ele>
      </trkpt>
      <trkpt lat="42.998109" lon="-1.906603">
        <ele>639</ele>
      </trkpt>
      <trkpt lat="42.998208" lon="-1.9061710000000001">
        <ele>635</ele>
      </trkpt>
      <trkpt lat="42.998253" lon="-1.9059470000000001">
        <ele>633</ele>
      </trkpt>
      <trkpt lat="42.998273" lon="-1.9057580000000001">
        <ele>631</ele>
      </trkpt>
      <trkpt lat="42.998286" lon="-1.9052819999999999">
        <ele>626</ele>
      </trkpt>
      <trkpt lat="42.998319" lon="-1.9047430000000001">
        <ele>620</ele>
      </trkpt>
      <trkpt lat="42.998352" lon="-1.904266">
        <ele>616</ele>
      </trkpt>
      <trkpt lat="42.998385" lon="-1.9035930000000001">
        <ele>614</ele>
      </trkpt>
      <trkpt lat="42.99845" lon="-1.902471">
        <ele>616</ele>
      </trkpt>
      <trkpt lat="42.998503" lon="-1.901932">
        <ele>614</ele>
      </trkpt>
      <trkpt lat="42.998516" lon="-1.9013469999999999">
        <ele>611</ele>
      </trkpt>
      <trkpt lat="42.998503" lon="-1.901024">
        <ele>609</ele>
      </trkpt>
      <trkpt lat="42.99847" lon="-1.9007369999999999">
        <ele>607</ele>
      </trkpt>
      <trkpt lat="42.998437" lon="-1.900593">
        <ele>605</ele>
      </trkpt>
      <trkpt lat="42.998293" lon="-1.9002969999999999">
        <ele>603</ele>
      </trkpt>
      <trkpt lat="42.998253" lon="-1.9001440000000001">
        <ele>601</ele>
      </trkpt>
      <trkpt lat="42.99822" lon="-1.8997580000000001">
        <ele>597</ele>
      </trkpt>
      <trkpt lat="42.998181" lon="-1.899551">
        <ele>596</ele>
      </trkpt>
      <trkpt lat="42.998102" lon="-1.8992720000000001">
        <ele>594</ele>
      </trkpt>
      <trkpt lat="42.99803" lon="-1.8991100000000001">
        <ele>593</ele>
      </trkpt>
      <trkpt lat="42.997971" lon="-1.8990119999999999">
        <ele>591</ele>
      </trkpt>
      <trkpt lat="42.997892" lon="-1.89893">
        <ele>589</ele>
      </trkpt>
      <trkpt lat="42.997662" lon="-1.8987419999999999">
        <ele>586</ele>
      </trkpt>
      <trkpt lat="42.997498" lon="-1.898571">
        <ele>586</ele>
      </trkpt>
      <trkpt lat="42.997439" lon="-1.8984730000000001">
        <ele>585</ele>
      </trkpt>
      <trkpt lat="42.997406" lon="-1.898374">
        <ele>585</ele>
      </trkpt>
      <trkpt lat="42.997393" lon="-1.8982840000000001">
        <ele>584</ele>
      </trkpt>
      <trkpt lat="42.997386" lon="-1.8981939999999999">
        <ele>584</ele>
      </trkpt>
      <trkpt lat="42.997406" lon="-1.8980950000000001">
        <ele>582</ele>
      </trkpt>
      <trkpt lat="42.997432" lon="-1.8979870000000001">
        <ele>581</ele>
      </trkpt>
      <trkpt lat="42.997551" lon="-1.897718">
        <ele>576</ele>
      </trkpt>
      <trkpt lat="42.99757" lon="-1.8976010000000001">
        <ele>574</ele>
      </trkpt>
      <trkpt lat="42.997557" lon="-1.8974850000000001">
        <ele>571</ele>
      </trkpt>
      <trkpt lat="42.997524" lon="-1.8973580000000001">
        <ele>569</ele>
      </trkpt>
      <trkpt lat="42.997478" lon="-1.8972690000000001">
        <ele>568</ele>
      </trkpt>
      <trkpt lat="42.997412" lon="-1.8971880000000001">
        <ele>567</ele>
      </trkpt>
      <trkpt lat="42.997202" lon="-1.897035">
        <ele>567</ele>
      </trkpt>
      <trkpt lat="42.996946" lon="-1.8968560000000001">
        <ele>568</ele>
      </trkpt>
      <trkpt lat="42.996847" lon="-1.896766">
        <ele>568</ele>
      </trkpt>
      <trkpt lat="42.996781" lon="-1.896676">
        <ele>567</ele>
      </trkpt>
      <trkpt lat="42.996743" lon="-1.8965689999999999">
        <ele>566</ele>
      </trkpt>
      <trkpt lat="42.996722" lon="-1.896469">
        <ele>564</ele>
      </trkpt>
      <trkpt lat="42.996729" lon="-1.8963350000000001">
        <ele>562</ele>
      </trkpt>
      <trkpt lat="42.996749" lon="-1.896245">
        <ele>561</ele>
      </trkpt>
      <trkpt lat="42.996781" lon="-1.896164">
        <ele>560</ele>
      </trkpt>
      <trkpt lat="42.996834" lon="-1.8960920000000001">
        <ele>559</ele>
      </trkpt>
      <trkpt lat="42.996926" lon="-1.8960109999999999">
        <ele>559</ele>
      </trkpt>
      <trkpt lat="42.997097" lon="-1.895886">
        <ele>558</ele>
      </trkpt>
      <trkpt lat="42.997196" lon="-1.8957870000000001">
        <ele>558</ele>
      </trkpt>
      <trkpt lat="42.997274" lon="-1.895697">
        <ele>557</ele>
      </trkpt>
      <trkpt lat="42.997347" lon="-1.8955900000000001">
        <ele>557</ele>
      </trkpt>
      <trkpt lat="42.997465" lon="-1.895364">
        <ele>556</ele>
      </trkpt>
      <trkpt lat="42.997557" lon="-1.8951210000000001">
        <ele>556</ele>
      </trkpt>
      <trkpt lat="42.997662" lon="-1.894798">
        <ele>558</ele>
      </trkpt>
      <trkpt lat="42.997813" lon="-1.8949069999999999">
        <ele>557</ele>
      </trkpt>
      <trkpt lat="42.997577" lon="-1.895643">
        <ele>558</ele>
      </trkpt>
      <trkpt lat="42.997563" lon="-1.895724">
        <ele>558</ele>
      </trkpt>
      <trkpt lat="42.997577" lon="-1.895796">
        <ele>558</ele>
      </trkpt>
      <trkpt lat="42.997636" lon="-1.895859">
        <ele>559</ele>
      </trkpt>
      <trkpt lat="42.997754" lon="-1.895913">
        <ele>560</ele>
      </trkpt>
      <trkpt lat="42.997899" lon="-1.8959299999999999">
        <ele>561</ele>
      </trkpt>
      <trkpt lat="42.998037" lon="-1.895894">
        <ele>561</ele>
      </trkpt>
      <trkpt lat="42.998194" lon="-1.895894">
        <ele>562</ele>
      </trkpt>
      <trkpt lat="42.998497" lon="-1.8959569999999999">
        <ele>564</ele>
      </trkpt>
      <trkpt lat="42.998727" lon="-1.89611">
        <ele>565</ele>
      </trkpt>
      <trkpt lat="42.998851" lon="-1.89619">
        <ele>566</ele>
      </trkpt>
      <trkpt lat="42.998969" lon="-1.896272">
        <ele>567</ele>
      </trkpt>
      <trkpt lat="42.999219" lon="-1.89655">
        <ele>568</ele>
      </trkpt>
      <trkpt lat="42.999377" lon="-1.896811">
        <ele>568</ele>
      </trkpt>
      <trkpt lat="42.999502" lon="-1.8969279999999999">
        <ele>568</ele>
      </trkpt>
      <trkpt lat="42.999718" lon="-1.8971519999999999">
        <ele>568</ele>
      </trkpt>
      <trkpt lat="42.999869" lon="-1.897421">
        <ele>570</ele>
      </trkpt>
      <trkpt lat="43.000073" lon="-1.8975839999999999">
        <ele>574</ele>
      </trkpt>
      <trkpt lat="43.000277" lon="-1.8976740000000001">
        <ele>577</ele>
      </trkpt>
      <trkpt lat="43.000454" lon="-1.8976999999999999">
        <ele>577</ele>
      </trkpt>
      <trkpt lat="43.000677" lon="-1.8976820000000001">
        <ele>574</ele>
      </trkpt>
      <trkpt lat="43.000921" lon="-1.8976820000000001">
        <ele>571</ele>
      </trkpt>
      <trkpt lat="43.001046" lon="-1.8977539999999999">
        <ele>570</ele>
      </trkpt>
      <trkpt lat="43.001571" lon="-1.89815">
        <ele>568</ele>
      </trkpt>
      <trkpt lat="43.001604" lon="-1.8982030000000001">
        <ele>568</ele>
      </trkpt>
      <trkpt lat="43.001683" lon="-1.8982129999999999">
        <ele>567</ele>
      </trkpt>
      <trkpt lat="43.001755" lon="-1.898185">
        <ele>566</ele>
      </trkpt>
      <trkpt lat="43.001775" lon="-1.898177">
        <ele>565</ele>
      </trkpt>
      <trkpt lat="43.001978" lon="-1.8980410000000001">
        <ele>563</ele>
      </trkpt>
      <trkpt lat="43.002182" lon="-1.897907">
        <ele>563</ele>
      </trkpt>
      <trkpt lat="43.00257" lon="-1.8975649999999999">
        <ele>564</ele>
      </trkpt>
      <trkpt lat="43.003082" lon="-1.897062">
        <ele>566</ele>
      </trkpt>
      <trkpt lat="43.003542" lon="-1.896649">
        <ele>567</ele>
      </trkpt>
      <trkpt lat="43.003989" lon="-1.896515">
        <ele>571</ele>
      </trkpt>
      <trkpt lat="43.004113" lon="-1.896479">
        <ele>571</ele>
      </trkpt>
      <trkpt lat="43.004363" lon="-1.8963970000000001">
        <ele>572</ele>
      </trkpt>
      <trkpt lat="43.004547" lon="-1.896326">
        <ele>571</ele>
      </trkpt>
      <trkpt lat="43.004659" lon="-1.895993">
        <ele>570</ele>
      </trkpt>
      <trkpt lat="43.004909" lon="-1.895661">
        <ele>570</ele>
      </trkpt>
      <trkpt lat="43.004974" lon="-1.895535">
        <ele>570</ele>
      </trkpt>
      <trkpt lat="43.005178" lon="-1.895526">
        <ele>571</ele>
      </trkpt>
    </trkseg>
  </trk>
</gpx>